 2021  1 5  7 3 50.7 L  59.822   7.898  0.0      39 0.0                        1
 Action:ARG 22-03-18 16:16 OP:feha STATUS:               ID:20210105070350     I
 2021-01-05-0702-30M.EQCS__092                                                 6
 detect_val=4.042707050110752                                                  3
 Detected using template: 2021_01_05t17_42_43_30_templ                         3
 EQC_detection_id: 2021_01_05t17_42_43_30_templ_20210105_070350450000          3
 STAT COM NTLO IPHASE   W HHMM SS.SSS   PAR1  PAR2 AGA OPE  AIN  RES W  DIS CAZ7
 ASK  HHN NS00  S        A 7 4 25.625              eqc                          
 ASK  HHZ NS00  P        A 7 4  6.150              eqc                          
 BLS5 HHE NS00  S        A 7 4  5.750              eqc                          
 BLS5 HHZ NS00  P        A 7 3 54.200              eqc                          
 HOMB HHE NS00  S        A 7 4 28.075              eqc                          
 HYA  HHN NS00  S        A 7 4 29.275              eqc                          
 KMY  HHN NS00  S        A 7 4 24.975              eqc                          
 KMY  HHZ NS00  P        A 7 4  6.225              eqc                          
 NAO01BHN NO00  S        A 7 4 33.875              eqc                          
 NAO01BHZ NO00  P        A 7 4 12.100              eqc                          
 NAO02BHZ NO00  P        A 7 4 10.750              eqc                          
 NAO03BHZ NO00  P        A 7 4  9.700              eqc                          
 NAO04BHZ NO00  P        A 7 4 10.750              eqc                          
 NAO05BHZ NO00  P        A 7 4 11.600              eqc                          
 NBO00BHE NO00  S        A 7 4 35.175              eqc                          
 NBO00BHZ NO00  P        A 7 4 12.900              eqc                          
 NBO01BHZ NO00  P        A 7 4 12.450              eqc                          
 NBO02BHZ NO00  P        A 7 4 13.000              eqc                          
 NBO03BHZ NO00  P        A 7 4 13.500              eqc                          
 NBO04BHZ NO00  Pg       A 7 4 13.900              eqc                          
 NBO05BHZ NO00  P        A 7 4 12.625              eqc                          
 NC200BHZ NO00  P        A 7 4 14.375              eqc                          
 NC201BHZ NO00  P        A 7 4 14.850              eqc                          
 NC202BHZ NO00  P        A 7 4 14.850              eqc                          
 NC203BHZ NO00  P        A 7 4 13.800              eqc                          
 NC204BHZ NO00  P        A 7 4 14.225              eqc                          
 NC300BHZ NO00  Pg       A 7 4 18.875              eqc                          
 NC303BHZ NO00  P        A 7 4 18.075              eqc                          
 NC304BHZ NO00  Pg       A 7 4 18.650              eqc                          
 NC400BHZ NO00  P        A 7 4 19.676              eqc                          
 NC403BHZ NO00  P        A 7 4 17.750              eqc                          
 NC602BHE NO00  Sg       A 7 4 42.100              eqc                          
 NC602BHZ NO00  P        A 7 4 14.269              eqc                          
 NC603BHZ NO00  P        A 7 4 12.878              eqc                          
 NC604BHZ NO00  P        A 7 4 13.525              eqc                          
 NC605BHZ NO00  P        A 7 4 13.920              eqc                          
 ODD1 HHN NS00  S        A 7 3 59.200              eqc                          
 ODD1 HHZ NS00  P        A 7 3 50.775              eqc                          
 SKAR HHN NS00  S        A 7 4  7.050              eqc                          
 SKAR HHZ NS00  P        A 7 3 55.425              eqc                          
 SNARTEHE NS00  S        A 7 4 25.950              eqc                          
 SUE  HHN NS00  S        A 7 4 38.925              eqc                          
 NAO  BHZ NS00  P        A 7 4 11.004                                           
 NBO  BHZ NS00  P        A 7 4 12.900                                           
 NC2  BHZ NS00  P        A 7 4 14.375                                           
 NC3  BHZ NS00  P        A 7 4 18.875                                           
 NC4  BHZ NS00  P        A 7 4 19.676                                           
 NBO  BHZ NS00  P        A 7 4 12.650                                           
 NAO  BHZ NS00  P        A 7 4 11.029                                           
 NBO  BHE NS00  S        A 7 4 35.175                                           
                                                                                
