 2021  1 5  242 52.5 L  59.822   7.898  0.0      38 0.0                        1
 Action:ARG 22-03-18 16:16 OP:feha STATUS:               ID:20210105024252     I
 2021-01-05-0241-32M.EQCS__092                                                 6
 detect_val=13.926362602168341                                                 3
 Detected using template: 2021_01_05t17_42_43_30_templ                         3
 EQC_detection_id: 2021_01_05t17_42_43_30_templ_20210105_024252200000          3
 STAT COM NTLO IPHASE   W HHMM SS.SSS   PAR1  PAR2 AGA OPE  AIN  RES W  DIS CAZ7
 ASK  HHN NS00  S        A 243 27.575              eqc                          
 ASK  HHZ NS00  P        A 243  7.900              eqc                          
 BLS5 HHE NS00  S        A 243  7.500              eqc                          
 BLS5 HHZ NS00  P        A 242 55.950              eqc                          
 HYA  HHN NS00  S        A 243 30.675              eqc                          
 KMY  HHN NS00  S        A 243 26.725              eqc                          
 KMY  HHZ NS00  P        A 243  7.975              eqc                          
 NAO01BHN NO00  S        A 243 35.775              eqc                          
 NAO01BHZ NO00  P        A 243 13.225              eqc                          
 NAO02BHZ NO00  P        A 243 12.525              eqc                          
 NAO03BHZ NO00  P        A 243 11.825              eqc                          
 NAO04BHZ NO00  P        A 243 11.750              eqc                          
 NAO05BHZ NO00  P        A 243 12.550              eqc                          
 NBO00BHE NO00  S        A 243 36.925              eqc                          
 NBO00BHZ NO00  P        A 243 13.800              eqc                          
 NBO01BHZ NO00  P        A 243 14.200              eqc                          
 NBO02BHZ NO00  P        A 243 14.675              eqc                          
 NBO03BHZ NO00  P        A 243 14.125              eqc                          
 NBO04BHZ NO00  Pg       A 243 14.575              eqc                          
 NBO05BHZ NO00  P        A 243 13.525              eqc                          
 NC200BHZ NO00  P        A 243 16.125              eqc                          
 NC201BHZ NO00  P        A 243 16.600              eqc                          
 NC202BHZ NO00  P        A 243 16.100              eqc                          
 NC203BHZ NO00  P        A 243 15.550              eqc                          
 NC204BHZ NO00  P        A 243 15.975              eqc                          
 NC300BHZ NO00  Pg       A 243 20.775              eqc                          
 NC303BHZ NO00  P        A 243 18.900              eqc                          
 NC304BHZ NO00  Pg       A 243 20.400              eqc                          
 NC400BHZ NO00  P        A 243 20.527              eqc                          
 NC403BHZ NO00  P        A 243 19.500              eqc                          
 NC602BHE NO00  Sg       A 243 43.175              eqc                          
 NC602BHZ NO00  P        A 243 15.850              eqc                          
 NC603BHZ NO00  P        A 243 14.900              eqc                          
 NC604BHZ NO00  P        A 243 14.824              eqc                          
 NC605BHZ NO00  P        A 243 14.975              eqc                          
 ODD1 HHN NS00  S        A 243  0.950              eqc                          
 ODD1 HHZ NS00  P        A 242 52.525              eqc                          
 SKAR HHN NS00  S        A 243  8.775              eqc                          
 SKAR HHZ NS00  P        A 242 57.075              eqc                          
 SNARTEHE NS00  S        A 243 27.700              eqc                          
 SUE  HHN NS00  S        A 243 40.650              eqc                          
 NAO  BHZ NS00  P        A 243 12.862                                           
 NBO  BHZ NS00  P        A 243 13.800                                           
 NC2  BHZ NS00  P        A 243 16.125                                           
 NC3  BHZ NS00  P        A 243 20.775                                           
 NC4  BHZ NS00  P        A 243 20.527                                           
 NBO  BHZ NS00  P        A 243 14.125                                           
 NAO  BHZ NS00  P        A 243 12.880                                           
 NBO  BHE NS00  S        A 243 36.925                                           
                                                                                
