 2021  1 5 1832 23.6 L  59.822   7.898  0.0      37 0.0                        1
 Action:ARG 22-03-18 16:16 OP:feha STATUS:               ID:20210105183223     I
 2021-01-05-1831-03M.EQCS__092                                                 6
 detect_val=19.75464454293251                                                  3
 Detected using template: 2021_01_05t17_42_43_30_templ                         3
 EQC_detection_id: 2021_01_05t17_42_43_30_templ_20210105_183223350000          3
 STAT COM NTLO IPHASE   W HHMM SS.SSS   PAR1  PAR2 AGA OPE  AIN  RES W  DIS CAZ7
 ASK  HHN NS00  S        A1832 58.700              eqc                          
 ASK  HHZ NS00  P        A1832 39.025              eqc                          
 BLS5 HHE NS00  S        A1832 38.625              eqc                          
 HOMB HHE NS00  S        A1833  0.075              eqc                          
 HYA  HHN NS00  S        A1833  1.825              eqc                          
 KMY  HHN NS00  S        A1832 57.850              eqc                          
 NAO01BHN NO00  S        A1833  6.925              eqc                          
 NAO01BHZ NO00  P        A1832 44.375              eqc                          
 NAO02BHZ NO00  P        A1832 43.675              eqc                          
 NAO03BHZ NO00  P        A1832 42.975              eqc                          
 NAO04BHZ NO00  P        A1832 42.900              eqc                          
 NAO05BHZ NO00  P        A1832 43.700              eqc                          
 NBO00BHE NO00  S        A1833  8.075              eqc                          
 NBO00BHZ NO00  P        A1832 44.950              eqc                          
 NBO01BHZ NO00  P        A1832 45.350              eqc                          
 NBO02BHZ NO00  P        A1832 45.825              eqc                          
 NBO03BHZ NO00  P        A1832 45.275              eqc                          
 NBO04BHZ NO00  Pg       A1832 45.725              eqc                          
 NBO05BHZ NO00  P        A1832 44.675              eqc                          
 NC200BHZ NO00  P        A1832 47.275              eqc                          
 NC201BHZ NO00  P        A1832 47.750              eqc                          
 NC202BHZ NO00  P        A1832 47.250              eqc                          
 NC203BHZ NO00  P        A1832 46.700              eqc                          
 NC204BHZ NO00  P        A1832 47.125              eqc                          
 NC300BHZ NO00  Pg       A1832 51.925              eqc                          
 NC303BHZ NO00  P        A1832 50.050              eqc                          
 NC304BHZ NO00  Pg       A1832 51.550              eqc                          
 NC400BHZ NO00  P        A1832 51.675              eqc                          
 NC403BHZ NO00  P        A1832 50.650              eqc                          
 NC602BHE NO00  Sg       A1833 14.325              eqc                          
 NC602BHZ NO00  P        A1832 47.000              eqc                          
 NC603BHZ NO00  P        A1832 46.050              eqc                          
 NC604BHZ NO00  P        A1832 45.975              eqc                          
 NC605BHZ NO00  P        A1832 46.125              eqc                          
 ODD1 HHN NS00  S        A1832 32.075              eqc                          
 ODD1 HHZ NS00  P        A1832 23.650              eqc                          
 SKAR HHN NS00  S        A1832 39.950              eqc                          
 SKAR HHZ NS00  P        A1832 28.225              eqc                          
 SNARTEHE NS00  S        A1832 58.850              eqc                          
 NBO  BHZ NS00  P        A1832 44.950                                           
 NC2  BHZ NS00  P        A1832 47.275                                           
 NC3  BHZ NS00  P        A1832 51.925                                           
 NC4  BHZ NS00  P        A1832 51.675                                           
 NBO  BHE NS00  S        A1833  8.075                                           
                                                                                
