 2021  1 5 1741 54.2 L  59.822   7.898  0.0      38 0.0                        1
 Action:ARG 22-03-18 16:16 OP:feha STATUS:               ID:20210105174154     I
 2021-01-05-1740-33M.EQCS__092                                                 6
 detect_val=31.338127970695496                                                 3
 Detected using template: 2021_01_05t17_42_43_30_templ                         3
 EQC_detection_id: 2021_01_05t17_42_43_30_templ_20210105_174153925000          3
 STAT COM NTLO IPHASE   W HHMM SS.SSS   PAR1  PAR2 AGA OPE  AIN  RES W  DIS CAZ7
 ASK  HHN NS00  S        A1742 29.275              eqc                          
 ASK  HHZ NS00  P        A1742  9.600              eqc                          
 BLS5 HHE NS00  S        A1742  9.200              eqc                          
 HOMB HHE NS00  S        A1742 30.650              eqc                          
 HYA  HHN NS00  S        A1742 32.375              eqc                          
 KMY  HHN NS00  S        A1742 28.425              eqc                          
 KMY  HHZ NS00  P        A1742  9.675              eqc                          
 NAO01BHN NO00  S        A1742 37.500              eqc                          
 NAO01BHZ NO00  P        A1742 14.950              eqc                          
 NAO02BHZ NO00  P        A1742 14.250              eqc                          
 NAO03BHZ NO00  P        A1742 13.550              eqc                          
 NAO04BHZ NO00  P        A1742 13.475              eqc                          
 NAO05BHZ NO00  P        A1742 14.275              eqc                          
 NBO00BHE NO00  S        A1742 38.650              eqc                          
 NBO00BHZ NO00  P        A1742 15.525              eqc                          
 NBO01BHZ NO00  P        A1742 15.925              eqc                          
 NBO02BHZ NO00  P        A1742 16.400              eqc                          
 NBO03BHZ NO00  P        A1742 15.850              eqc                          
 NBO04BHZ NO00  Pg       A1742 16.300              eqc                          
 NBO05BHZ NO00  P        A1742 15.250              eqc                          
 NC200BHZ NO00  P        A1742 17.850              eqc                          
 NC201BHZ NO00  P        A1742 18.325              eqc                          
 NC202BHZ NO00  P        A1742 17.825              eqc                          
 NC203BHZ NO00  P        A1742 17.275              eqc                          
 NC204BHZ NO00  P        A1742 17.700              eqc                          
 NC300BHZ NO00  Pg       A1742 22.500              eqc                          
 NC303BHZ NO00  P        A1742 20.625              eqc                          
 NC304BHZ NO00  Pg       A1742 22.125              eqc                          
 NC400BHZ NO00  P        A1742 22.250              eqc                          
 NC403BHZ NO00  P        A1742 21.225              eqc                          
 NC602BHE NO00  Sg       A1742 44.900              eqc                          
 NC602BHZ NO00  P        A1742 17.575              eqc                          
 NC603BHZ NO00  P        A1742 16.625              eqc                          
 NC604BHZ NO00  P        A1742 16.550              eqc                          
 NC605BHZ NO00  P        A1742 16.700              eqc                          
 ODD1 HHN NS00  S        A1742  2.625              eqc                          
 ODD1 HHZ NS00  P        A1741 54.200              eqc                          
 SKAR HHN NS00  S        A1742 10.500              eqc                          
 SKAR HHZ NS00  P        A1741 58.775              eqc                          
 SNARTEHE NS00  S        A1742 29.425              eqc                          
 SUE  HHN NS00  S        A1742 42.375              eqc                          
 NBO  BHZ NS00  P        A1742 15.525                                           
 NC2  BHZ NS00  P        A1742 17.850                                           
 NC3  BHZ NS00  P        A1742 22.500                                           
 NC4  BHZ NS00  P        A1742 22.250                                           
 NBO  BHE NS00  S        A1742 38.650                                           
                                                                                
