 2021  1 5 1048 30.3 L  59.822   7.898  0.0      38 0.0                        1
 Action:ARG 22-03-18 16:16 OP:feha STATUS:               ID:20210105104830     I
 2021-01-05-1047-10M.EQCS__092                                                 6
 detect_val=5.600135050714016                                                  3
 Detected using template: 2021_01_05t17_42_43_30_templ                         3
 EQC_detection_id: 2021_01_05t17_42_43_30_templ_20210105_104830075000          3
 STAT COM NTLO IPHASE   W HHMM SS.SSS   PAR1  PAR2 AGA OPE  AIN  RES W  DIS CAZ7
 ASK  HHN NS00  S        A1049  6.550              eqc                          
 ASK  HHZ NS00  P        A1048 45.775              eqc                          
 BLS5 HHE NS00  S        A1048 45.350              eqc                          
 BLS5 HHZ NS00  P        A1048 33.800              eqc                          
 HOMB HHE NS00  S        A1049  6.925              eqc                          
 HYA  HHN NS00  S        A1049  8.550              eqc                          
 KMY  HHN NS00  S        A1049  4.600              eqc                          
 KMY  HHZ NS00  P        A1048 45.825              eqc                          
 NAO01BHN NO00  S        A1049 13.675              eqc                          
 NAO01BHZ NO00  P        A1048 51.125              eqc                          
 NAO02BHZ NO00  P        A1048 50.425              eqc                          
 NAO03BHZ NO00  P        A1048 49.725              eqc                          
 NAO04BHZ NO00  P        A1048 49.650              eqc                          
 NAO05BHZ NO00  P        A1048 50.850              eqc                          
 NBO00BHE NO00  S        A1049 15.300              eqc                          
 NBO01BHZ NO00  P        A1048 52.100              eqc                          
 NBO02BHZ NO00  P        A1048 52.575              eqc                          
 NBO03BHZ NO00  P        A1048 52.025              eqc                          
 NBO05BHZ NO00  P        A1048 51.425              eqc                          
 NC200BHZ NO00  P        A1048 54.025              eqc                          
 NC201BHZ NO00  P        A1048 54.500              eqc                          
 NC202BHZ NO00  P        A1048 54.900              eqc                          
 NC203BHZ NO00  P        A1048 53.450              eqc                          
 NC204BHZ NO00  P        A1048 53.875              eqc                          
 NC303BHZ NO00  P        A1048 57.800              eqc                          
 NC304BHZ NO00  Pg       A1048 59.225              eqc                          
 NC400BHZ NO00  P        A1048 58.600              eqc                          
 NC403BHZ NO00  P        A1048 57.400              eqc                          
 NC602BHE NO00  Sg       A1049 21.075              eqc                          
 NC602BHZ NO00  P        A1048 53.750              eqc                          
 NC603BHZ NO00  P        A1048 52.800              eqc                          
 NC604BHZ NO00  P        A1048 52.725              eqc                          
 NC605BHZ NO00  P        A1048 52.875              eqc                          
 ODD1 HHN NS00  S        A1048 38.800              eqc                          
 ODD1 HHZ NS00  P        A1048 30.375              eqc                          
 SKAR HHN NS00  S        A1048 46.675              eqc                          
 SKAR HHZ NS00  P        A1048 34.950              eqc                          
 SNARTEHE NS00  S        A1049  5.575              eqc                          
 SUE  HHN NS00  S        A1049 18.550              eqc                          
 NC6  BHZ NS00  P        A1048 53.787                                           
 NC6  BHE NS00  S        A1049 21.087                                           
 NAO  BHZ NS00  P        A1048 50.515                                           
 NBO  BHZ NS00  P        A1048 52.084                                           
 NBO  BHE NS00  S        A1049 15.100                                           
 NC2  BHZ NS00  P        A1048 54.025                                           
 NC3  BHZ NS00  P        A1048 57.676                                           
 NC4  BHZ NS00  P        A1048 58.600                                           
 NBO  BHZ NS00  P        A1048 52.017                                           
 NBO  BHE NS00  S        A1049 15.100                                           
 NC3  BHZ NS00  P        A1048 57.851                                           
 NAO  BHZ NS00  P        A1048 50.544                                           
                                                                                
