 2021  1 5 1632 38.4 L  59.822   7.898  0.0      40 0.0                        1
 Action:ARG 22-03-18 16:16 OP:feha STATUS:               ID:20210105163238     I
 2021-01-05-1631-18M.EQCS__092                                                 6
 detect_val=4.518063109648805                                                  3
 Detected using template: 2021_01_05t17_42_43_30_templ                         3
 EQC_detection_id: 2021_01_05t17_42_43_30_templ_20210105_163238175000          3
 STAT COM NTLO IPHASE   W HHMM SS.SSS   PAR1  PAR2 AGA OPE  AIN  RES W  DIS CAZ7
 ASK  HHN NS00  S        A1633 13.500              eqc                          
 ASK  HHZ NS00  P        A1632 54.950              eqc                          
 BLS5 HHE NS00  S        A1632 53.450              eqc                          
 BLS5 HHZ NS00  P        A1632 41.425              eqc                          
 HOMB HHE NS00  S        A1633 14.900              eqc                          
 HYA  HHN NS00  S        A1633 16.650              eqc                          
 KMY  HHN NS00  S        A1633 12.675              eqc                          
 KMY  HHZ NS00  P        A1632 53.925              eqc                          
 NAO01BHN NO00  S        A1633 21.750              eqc                          
 NAO01BHZ NO00  P        A1632 59.200              eqc                          
 NAO02BHZ NO00  P        A1632 58.500              eqc                          
 NAO03BHZ NO00  P        A1632 58.425              eqc                          
 NAO04BHZ NO00  P        A1632 57.375              eqc                          
 NAO05BHZ NO00  P        A1632 58.825              eqc                          
 NBO00BHE NO00  S        A1633 22.900              eqc                          
 NBO00BHZ NO00  P        A1633  0.700              eqc                          
 NBO01BHZ NO00  P        A1633  0.175              eqc                          
 NBO02BHZ NO00  P        A1633  0.650              eqc                          
 NBO03BHZ NO00  P        A1633  0.100              eqc                          
 NBO04BHZ NO00  Pg       A1633  0.550              eqc                          
 NBO05BHZ NO00  P        A1632 59.500              eqc                          
 NC200BHZ NO00  P        A1633  2.100              eqc                          
 NC201BHZ NO00  P        A1633  2.575              eqc                          
 NC202BHZ NO00  P        A1633  2.075              eqc                          
 NC203BHZ NO00  P        A1633  1.525              eqc                          
 NC204BHZ NO00  P        A1633  1.950              eqc                          
 NC300BHZ NO00  Pg       A1633  6.292              eqc                          
 NC303BHZ NO00  P        A1633  4.525              eqc                          
 NC304BHZ NO00  Pg       A1633  6.375              eqc                          
 NC400BHZ NO00  P        A1633  6.025              eqc                          
 NC403BHZ NO00  P        A1633  6.425              eqc                          
 NC602BHE NO00  Sg       A1633 29.475              eqc                          
 NC602BHZ NO00  P        A1633  2.376              eqc                          
 NC603BHZ NO00  P        A1633  1.325              eqc                          
 NC604BHZ NO00  P        A1633  0.355              eqc                          
 NC605BHZ NO00  P        A1633  0.700              eqc                          
 ODD1 HHN NS00  S        A1632 46.900              eqc                          
 ODD1 HHZ NS00  P        A1632 38.475              eqc                          
 SKAR HHN NS00  S        A1632 54.750              eqc                          
 SKAR HHZ NS00  P        A1632 43.500              eqc                          
 SNARTEHE NS00  S        A1633 13.675              eqc                          
 SUE  HHN NS00  S        A1633 26.625              eqc                          
 NC6  BHZ NS00  P        A1633  1.713                                           
 NC6  BHE NS00  S        A1633 29.212                                           
 NAO  BHZ NS00  P        A1632 58.621                                           
 NAO  BHN NS00  S        A1633 21.608                                           
 NBO  BHZ NS00  P        A1633  0.700                                           
 NC2  BHZ NS00  P        A1633  2.100                                           
 NC3  BHZ NS00  P        A1633  6.292                                           
 NC4  BHZ NS00  P        A1633  6.025                                           
 NBO  BHZ NS00  P        A1633  0.637                                           
 NBO  BHE NS00  S        A1633 23.200                                           
 NC3  BHZ NS00  P        A1633  6.526                                           
                                                                                
