 2021  1 5 1516 27.3 L  59.822   7.898  0.0      39 0.0                        1
 Action:ARG 22-03-18 16:16 OP:feha STATUS:               ID:20210105151627     I
 2021-01-05-1515-07M.EQCS__092                                                 6
 detect_val=8.398196230849141                                                  3
 Detected using template: 2021_01_05t17_42_43_30_templ                         3
 EQC_detection_id: 2021_01_05t17_42_43_30_templ_20210105_151627025000          3
 STAT COM NTLO IPHASE   W HHMM SS.SSS   PAR1  PAR2 AGA OPE  AIN  RES W  DIS CAZ7
 ASK  HHN NS00  S        A1517  2.375              eqc                          
 ASK  HHZ NS00  P        A1516 42.725              eqc                          
 BLS5 HHE NS00  S        A1516 42.325              eqc                          
 HOMB HHE NS00  S        A1517  3.750              eqc                          
 HYA  HHN NS00  S        A1517  5.500              eqc                          
 KMY  HHN NS00  S        A1517  1.550              eqc                          
 KMY  HHZ NS00  P        A1516 42.800              eqc                          
 NAO01BHN NO00  S        A1517 10.575              eqc                          
 NAO01BHZ NO00  P        A1516 48.050              eqc                          
 NAO02BHZ NO00  P        A1516 47.350              eqc                          
 NAO03BHZ NO00  P        A1516 46.650              eqc                          
 NAO05BHZ NO00  P        A1516 47.375              eqc                          
 NBO00BHE NO00  S        A1517 11.750              eqc                          
 NBO01BHZ NO00  P        A1516 49.025              eqc                          
 NBO02BHZ NO00  P        A1516 49.500              eqc                          
 NBO03BHZ NO00  P        A1516 48.951              eqc                          
 NBO04BHZ NO00  Pg       A1516 49.400              eqc                          
 NBO05BHZ NO00  P        A1516 48.350              eqc                          
 NC200BHZ NO00  P        A1516 50.950              eqc                          
 NC201BHZ NO00  P        A1516 51.425              eqc                          
 NC202BHZ NO00  P        A1516 50.925              eqc                          
 NC203BHZ NO00  P        A1516 50.375              eqc                          
 NC204BHZ NO00  P        A1516 50.800              eqc                          
 NC300BHZ NO00  Pg       A1516 55.600              eqc                          
 NC303BHZ NO00  P        A1516 53.725              eqc                          
 NC304BHZ NO00  Pg       A1516 55.225              eqc                          
 NC400BHZ NO00  P        A1516 55.350              eqc                          
 NC403BHZ NO00  P        A1516 54.325              eqc                          
 NC602BHE NO00  Sg       A1517 18.001              eqc                          
 NC602BHZ NO00  P        A1516 50.676              eqc                          
 NC603BHZ NO00  P        A1516 49.725              eqc                          
 NC604BHZ NO00  P        A1516 49.650              eqc                          
 NC605BHZ NO00  P        A1516 49.800              eqc                          
 ODD1 HHN NS00  S        A1516 35.775              eqc                          
 ODD1 HHZ NS00  P        A1516 27.350              eqc                          
 SKAR HHN NS00  S        A1516 43.600              eqc                          
 SKAR HHZ NS00  P        A1516 31.900              eqc                          
 SNARTEHE NS00  S        A1517  2.525              eqc                          
 SUE  HHN NS00  S        A1517 15.475              eqc                          
 NC6  BHE NS00  S        A1517 18.037                                           
 NAO  BHZ NS00  P        A1516 47.679                                           
 NBO  BHZ NS00  P        A1516 48.950                                           
 NC2  BHZ NS00  P        A1516 50.950                                           
 NC3  BHZ NS00  P        A1516 55.600                                           
 NC4  BHZ NS00  P        A1516 55.350                                           
 NC6  BHE NS00  S        A1517 18.177                                           
 NBO  BHZ NS00  P        A1516 48.950                                           
 NAO  BHZ NS00  P        A1516 47.423                                           
 NBO  BHE NS00  S        A1517 11.750                                           
                                                                                
