 2021  1 5 2154 29.6 L  59.822   7.898  0.0      38 0.0                        1
 Action:ARG 22-03-18 16:16 OP:feha STATUS:               ID:20210105215429     I
 2021-01-05-2153-09M.EQCS__092                                                 6
 detect_val=3.8960758614335207                                                 3
 Detected using template: 2021_01_05t17_42_43_30_templ                         3
 EQC_detection_id: 2021_01_05t17_42_43_30_templ_20210105_215429300000          3
 STAT COM NTLO IPHASE   W HHMM SS.SSS   PAR1  PAR2 AGA OPE  AIN  RES W  DIS CAZ7
 ASK  HHN NS00  S        A2155  4.675              eqc                          
 ASK  HHZ NS00  P        A2154 45.100              eqc                          
 BLS5 HHE NS00  S        A2154 44.575              eqc                          
 BLS5 HHZ NS00  P        A2154 32.850              eqc                          
 HOMB HHE NS00  S        A2155  6.000              eqc                          
 HYA  HHN NS00  S        A2155  7.800              eqc                          
 NAO01BHN NO00  S        A2155 13.726              eqc                          
 NAO01BHZ NO00  P        A2154 50.325              eqc                          
 NAO02BHZ NO00  P        A2154 49.625              eqc                          
 NAO03BHZ NO00  P        A2154 48.925              eqc                          
 NAO04BHZ NO00  P        A2154 48.850              eqc                          
 NAO05BHZ NO00  P        A2154 49.675              eqc                          
 NBO00BHE NO00  S        A2155 14.025              eqc                          
 NBO00BHZ NO00  P        A2154 51.725              eqc                          
 NBO01BHZ NO00  P        A2154 51.300              eqc                          
 NBO02BHZ NO00  P        A2154 52.650              eqc                          
 NBO03BHZ NO00  P        A2154 51.225              eqc                          
 NBO04BHZ NO00  Pg       A2154 51.175              eqc                          
 NBO05BHZ NO00  P        A2154 51.472              eqc                          
 NC200BHZ NO00  P        A2154 53.226              eqc                          
 NC201BHZ NO00  P        A2154 53.700              eqc                          
 NC202BHZ NO00  P        A2154 54.100              eqc                          
 NC203BHZ NO00  P        A2154 52.675              eqc                          
 NC204BHZ NO00  P        A2154 52.725              eqc                          
 NC300BHZ NO00  Pg       A2154 57.875              eqc                          
 NC303BHZ NO00  P        A2154 56.000              eqc                          
 NC304BHZ NO00  Pg       A2154 57.500              eqc                          
 NC400BHZ NO00  P        A2154 57.751              eqc                          
 NC403BHZ NO00  P        A2154 56.926              eqc                          
 NC602BHE NO00  Sg       A2155 21.277              eqc                          
 NC602BHZ NO00  P        A2154 52.950              eqc                          
 NC603BHZ NO00  P        A2154 52.000              eqc                          
 NC604BHZ NO00  P        A2154 52.803              eqc                          
 NC605BHZ NO00  P        A2154 53.200              eqc                          
 ODD1 HHN NS00  S        A2154 38.050              eqc                          
 ODD1 HHZ NS00  P        A2154 29.625              eqc                          
 SKAR HHN NS00  S        A2154 45.900              eqc                          
 SKAR HHZ NS00  P        A2154 34.175              eqc                          
 SNARTEHE NS00  S        A2155  5.500              eqc                          
 SUE  HHN NS00  S        A2155 17.575              eqc                          
 NAO  BHZ NS00  P        A2154 49.734                                           
 NBO  BHZ NS00  P        A2154 51.725                                           
 NC2  BHZ NS00  P        A2154 53.226                                           
 NC3  BHZ NS00  P        A2154 57.875                                           
 NC4  BHZ NS00  P        A2154 57.751                                           
 NBO  BHZ NS00  P        A2154 52.400                                           
 NBO  BHE NS00  S        A2155 14.325                                           
 NAO  BHZ NS00  P        A2154 49.824                                           
                                                                                
