 2021  1 5 2128 35.9 L  59.822   7.898  0.0      40 0.0                        1
 Action:ARG 22-03-18 16:16 OP:feha STATUS:               ID:20210105212835     I
 2021-01-05-2127-15M.EQCS__092                                                 6
 detect_val=4.603888058943853                                                  3
 Detected using template: 2021_01_05t17_42_43_30_templ                         3
 EQC_detection_id: 2021_01_05t17_42_43_30_templ_20210105_212835625000          3
 STAT COM NTLO IPHASE   W HHMM SS.SSS   PAR1  PAR2 AGA OPE  AIN  RES W  DIS CAZ7
 ASK  HHN NS00  S        A2129 10.975              eqc                          
 ASK  HHZ NS00  P        A2128 51.425              eqc                          
 BLS5 HHE NS00  S        A2128 50.900              eqc                          
 BLS5 HHZ NS00  P        A2128 40.025              eqc                          
 HOMB HHE NS00  S        A2129 13.075              eqc                          
 HYA  HHN NS00  S        A2129 14.100              eqc                          
 KMY  HHN NS00  S        A2129 10.125              eqc                          
 KMY  HHZ NS00  P        A2128 51.375              eqc                          
 NAO01BHN NO00  S        A2129 19.200              eqc                          
 NAO01BHZ NO00  P        A2128 56.393              eqc                          
 NAO02BHZ NO00  P        A2128 55.950              eqc                          
 NAO03BHZ NO00  P        A2128 55.250              eqc                          
 NAO04BHZ NO00  P        A2128 55.175              eqc                          
 NAO05BHZ NO00  P        A2128 55.975              eqc                          
 NBO00BHE NO00  S        A2129 20.350              eqc                          
 NBO00BHZ NO00  P        A2128 57.225              eqc                          
 NBO01BHZ NO00  P        A2128 57.625              eqc                          
 NBO02BHZ NO00  P        A2128 58.100              eqc                          
 NBO03BHZ NO00  P        A2128 57.750              eqc                          
 NBO04BHZ NO00  Pg       A2128 58.000              eqc                          
 NBO05BHZ NO00  P        A2128 57.374              eqc                          
 NC200BHZ NO00  P        A2128 59.898              eqc                          
 NC201BHZ NO00  P        A2129  0.025              eqc                          
 NC202BHZ NO00  P        A2129  0.225              eqc                          
 NC203BHZ NO00  P        A2128 58.804              eqc                          
 NC204BHZ NO00  P        A2128 59.400              eqc                          
 NC300BHZ NO00  Pg       A2129  4.000              eqc                          
 NC303BHZ NO00  P        A2129  2.175              eqc                          
 NC304BHZ NO00  Pg       A2129  3.528              eqc                          
 NC400BHZ NO00  P        A2129  5.050              eqc                          
 NC403BHZ NO00  P        A2129  3.250              eqc                          
 NC602BHE NO00  Sg       A2129 26.423              eqc                          
 NC602BHZ NO00  P        A2128 59.200              eqc                          
 NC603BHZ NO00  P        A2128 59.146              eqc                          
 NC604BHZ NO00  P        A2128 57.950              eqc                          
 NC605BHZ NO00  P        A2128 57.932              eqc                          
 ODD1 HHN NS00  S        A2128 44.350              eqc                          
 ODD1 HHZ NS00  P        A2128 35.925              eqc                          
 SKAR HHN NS00  S        A2128 52.225              eqc                          
 SKAR HHZ NS00  P        A2128 40.500              eqc                          
 SNARTEHE NS00  S        A2129 10.700              eqc                          
 SUE  HHN NS00  S        A2129 24.100              eqc                          
 NC6  BHZ NS00  P        A2128 59.200                                           
 NC6  BHE NS00  S        A2129 26.662                                           
 NAO  BHZ NS00  P        A2128 55.999                                           
 NBO  BHZ NS00  P        A2128 57.225                                           
 NC2  BHZ NS00  P        A2128 59.898                                           
 NC3  BHZ NS00  P        A2129  4.000                                           
 NC4  BHZ NS00  P        A2129  5.050                                           
 NBO  BHZ NS00  P        A2128 57.475                                           
 NBO  BHE NS00  S        A2129 20.650                                           
 NC3  BHZ NS00  P        A2129  4.525                                           
 NAO  BHZ NS00  P        A2128 56.065                                           
                                                                                
