 2021  1 5 2147 31.5 L  59.822   7.898  0.0      39 0.0                        1
 Action:ARG 22-03-18 16:16 OP:feha STATUS:               ID:20210105214731     I
 2021-01-05-2146-09M.EQCS__092                                                 6
 detect_val=4.040537129975206                                                  3
 Detected using template: 2021_01_05t17_42_43_30_templ                         3
 EQC_detection_id: 2021_01_05t17_42_43_30_templ_20210105_214729975000          3
 STAT COM NTLO IPHASE   W HHMM SS.SSS   PAR1  PAR2 AGA OPE  AIN  RES W  DIS CAZ7
 ASK  HHN NS00  S        A2148  5.350              eqc                          
 ASK  HHZ NS00  P        A2147 45.650              eqc                          
 BLS5 HHE NS00  S        A2147 45.250              eqc                          
 BLS5 HHZ NS00  P        A2147 34.700              eqc                          
 HYA  HHN NS00  S        A2148  8.450              eqc                          
 KMY  HHN NS00  S        A2148  4.475              eqc                          
 KMY  HHZ NS00  P        A2147 45.725              eqc                          
 NAO01BHN NO00  S        A2148 13.150              eqc                          
 NAO01BHZ NO00  P        A2147 51.000              eqc                          
 NAO02BHZ NO00  P        A2147 50.500              eqc                          
 NAO03BHZ NO00  P        A2147 49.600              eqc                          
 NAO04BHZ NO00  P        A2147 50.034              eqc                          
 NAO05BHZ NO00  P        A2147 50.325              eqc                          
 NBO00BHE NO00  S        A2148 14.700              eqc                          
 NBO00BHZ NO00  P        A2147 51.575              eqc                          
 NBO01BHZ NO00  P        A2147 51.975              eqc                          
 NBO02BHZ NO00  P        A2147 52.450              eqc                          
 NBO03BHZ NO00  P        A2147 52.825              eqc                          
 NBO04BHZ NO00  Pg       A2147 52.350              eqc                          
 NBO05BHZ NO00  P        A2147 52.000              eqc                          
 NC200BHZ NO00  P        A2147 53.900              eqc                          
 NC201BHZ NO00  P        A2147 54.375              eqc                          
 NC202BHZ NO00  P        A2147 53.875              eqc                          
 NC203BHZ NO00  P        A2147 53.325              eqc                          
 NC204BHZ NO00  P        A2147 54.602              eqc                          
 NC300BHZ NO00  Pg       A2147 58.550              eqc                          
 NC303BHZ NO00  P        A2147 56.235              eqc                          
 NC304BHZ NO00  Pg       A2147 58.350              eqc                          
 NC400BHZ NO00  P        A2147 58.623              eqc                          
 NC403BHZ NO00  P        A2147 57.275              eqc                          
 NC602BHE NO00  Sg       A2148 21.150              eqc                          
 NC602BHZ NO00  P        A2147 53.225              eqc                          
 NC603BHZ NO00  P        A2147 52.997              eqc                          
 NC604BHZ NO00  P        A2147 53.599              eqc                          
 NC605BHZ NO00  P        A2147 52.525              eqc                          
 ODD1 HHN NS00  S        A2147 38.700              eqc                          
 ODD1 HHZ NS00  P        A2147 31.050              eqc                          
 SKAR HHN NS00  S        A2147 46.575              eqc                          
 SKAR HHZ NS00  P        A2147 34.850              eqc                          
 SNARTEHE NS00  S        A2148  5.475              eqc                          
 SUE  HHN NS00  S        A2148 18.625              eqc                          
 NC6  BHZ NS00  P        A2147 53.304                                           
 NC6  BHE NS00  S        A2148 21.012                                           
 NAO  BHZ NS00  P        A2147 50.567                                           
 NBO  BHZ NS00  P        A2147 51.575                                           
 NC2  BHZ NS00  P        A2147 53.900                                           
 NC3  BHZ NS00  P        A2147 58.550                                           
 NC4  BHZ NS00  P        A2147 58.623                                           
 NBO  BHZ NS00  P        A2147 52.097                                           
 NC3  BHZ NS00  P        A2147 58.449                                           
 NAO  BHZ NS00  P        A2147 50.549                                           
 NBO  BHE NS00  S        A2148 14.700                                           
                                                                                
