 2021  1 5 2130 29.7 L  59.822   7.898  0.0      40 0.0                        1
 Action:ARG 22-03-18 16:16 OP:feha STATUS:               ID:20210105213029     I
 2021-01-05-2129-09M.EQCS__092                                                 6
 detect_val=3.967319019075566                                                  3
 Detected using template: 2021_01_05t17_42_43_30_templ                         3
 EQC_detection_id: 2021_01_05t17_42_43_30_templ_20210105_213029475000          3
 STAT COM NTLO IPHASE   W HHMM SS.SSS   PAR1  PAR2 AGA OPE  AIN  RES W  DIS CAZ7
 ASK  HHN NS00  S        A2131  4.625              eqc                          
 ASK  HHZ NS00  P        A2130 45.925              eqc                          
 BLS5 HHE NS00  S        A2130 44.750              eqc                          
 BLS5 HHZ NS00  P        A2130 33.500              eqc                          
 HOMB HHE NS00  S        A2131  6.200              eqc                          
 HYA  HHN NS00  S        A2131  7.975              eqc                          
 KMY  HHN NS00  S        A2131  4.075              eqc                          
 KMY  HHZ NS00  P        A2130 45.225              eqc                          
 NAO01BHN NO00  S        A2131 13.050              eqc                          
 NAO01BHZ NO00  P        A2130 50.500              eqc                          
 NAO02BHZ NO00  P        A2130 50.000              eqc                          
 NAO03BHZ NO00  P        A2130 48.750              eqc                          
 NAO04BHZ NO00  P        A2130 49.025              eqc                          
 NAO05BHZ NO00  P        A2130 50.631              eqc                          
 NBO00BHE NO00  S        A2131 14.200              eqc                          
 NBO00BHZ NO00  P        A2130 51.075              eqc                          
 NBO01BHZ NO00  P        A2130 51.825              eqc                          
 NBO02BHZ NO00  P        A2130 51.950              eqc                          
 NBO03BHZ NO00  P        A2130 51.575              eqc                          
 NBO04BHZ NO00  Pg       A2130 51.850              eqc                          
 NBO05BHZ NO00  P        A2130 51.500              eqc                          
 NC200BHZ NO00  P        A2130 53.425              eqc                          
 NC201BHZ NO00  P        A2130 53.875              eqc                          
 NC202BHZ NO00  P        A2130 53.375              eqc                          
 NC203BHZ NO00  P        A2130 52.825              eqc                          
 NC204BHZ NO00  P        A2130 53.250              eqc                          
 NC300BHZ NO00  Pg       A2130 58.050              eqc                          
 NC303BHZ NO00  P        A2130 57.275              eqc                          
 NC304BHZ NO00  Pg       A2130 58.746              eqc                          
 NC400BHZ NO00  P        A2130 57.700              eqc                          
 NC403BHZ NO00  P        A2130 57.825              eqc                          
 NC602BHE NO00  Sg       A2131 20.194              eqc                          
 NC602BHZ NO00  P        A2130 53.600              eqc                          
 NC603BHZ NO00  P        A2130 53.025              eqc                          
 NC604BHZ NO00  P        A2130 52.225              eqc                          
 NC605BHZ NO00  P        A2130 52.375              eqc                          
 ODD1 HHN NS00  S        A2130 38.200              eqc                          
 ODD1 HHZ NS00  P        A2130 29.775              eqc                          
 SKAR HHN NS00  S        A2130 46.075              eqc                          
 SKAR HHZ NS00  P        A2130 34.350              eqc                          
 SNARTEHE NS00  S        A2131  6.025              eqc                          
 SUE  HHN NS00  S        A2131 17.952              eqc                          
 NC6  BHZ NS00  P        A2130 53.348                                           
 NAO  BHZ NS00  P        A2130 49.998                                           
 NBO  BHZ NS00  P        A2130 51.075                                           
 NC2  BHZ NS00  P        A2130 53.425                                           
 NC3  BHZ NS00  P        A2130 58.050                                           
 NC4  BHZ NS00  P        A2130 57.700                                           
 NBO  BHZ NS00  P        A2130 51.524                                           
 NC3  BHZ NS00  P        A2130 57.736                                           
 NAO  BHZ NS00  P        A2130 49.885                                           
 NBO  BHE NS00  S        A2131 14.200                                           
                                                                                
