 2021  1 5 2030 43.1 L  59.822   7.898  0.0      38 0.0                        1
 Action:ARG 22-03-18 16:16 OP:feha STATUS:               ID:20210105203043     I
 2021-01-05-2029-22M.EQCS__092                                                 6
 detect_val=27.47547870874405                                                  3
 Detected using template: 2021_01_05t17_42_43_30_templ                         3
 EQC_detection_id: 2021_01_05t17_42_43_30_templ_20210105_203042825000          3
 STAT COM NTLO IPHASE   W HHMM SS.SSS   PAR1  PAR2 AGA OPE  AIN  RES W  DIS CAZ7
 ASK  HHN NS00  S        A2031 18.200              eqc                          
 ASK  HHZ NS00  P        A2030 58.525              eqc                          
 BLS5 HHE NS00  S        A2030 58.100              eqc                          
 BLS5 HHZ NS00  P        A2030 46.550              eqc                          
 HOMB HHE NS00  S        A2031 19.525              eqc                          
 HYA  HHN NS00  S        A2031 21.325              eqc                          
 KMY  HHN NS00  S        A2031 17.325              eqc                          
 KMY  HHZ NS00  P        A2030 58.575              eqc                          
 NAO01BHN NO00  S        A2031 26.400              eqc                          
 NAO01BHZ NO00  P        A2031  3.850              eqc                          
 NAO02BHZ NO00  P        A2031  3.150              eqc                          
 NAO03BHZ NO00  P        A2031  2.450              eqc                          
 NAO04BHZ NO00  P        A2031  2.375              eqc                          
 NAO05BHZ NO00  P        A2031  3.175              eqc                          
 NBO00BHE NO00  S        A2031 27.550              eqc                          
 NBO00BHZ NO00  P        A2031  4.425              eqc                          
 NBO01BHZ NO00  P        A2031  4.825              eqc                          
 NBO02BHZ NO00  P        A2031  5.300              eqc                          
 NBO03BHZ NO00  P        A2031  4.750              eqc                          
 NBO04BHZ NO00  Pg       A2031  5.200              eqc                          
 NBO05BHZ NO00  P        A2031  4.150              eqc                          
 NC200BHZ NO00  P        A2031  6.750              eqc                          
 NC201BHZ NO00  P        A2031  7.225              eqc                          
 NC202BHZ NO00  P        A2031  6.725              eqc                          
 NC203BHZ NO00  P        A2031  6.175              eqc                          
 NC204BHZ NO00  P        A2031  6.600              eqc                          
 NC300BHZ NO00  Pg       A2031 11.400              eqc                          
 NC303BHZ NO00  P        A2031  9.525              eqc                          
 NC304BHZ NO00  Pg       A2031 11.025              eqc                          
 NC400BHZ NO00  P        A2031 11.150              eqc                          
 NC403BHZ NO00  P        A2031 10.125              eqc                          
 NC602BHE NO00  Sg       A2031 33.800              eqc                          
 NC602BHZ NO00  P        A2031  6.475              eqc                          
 NC603BHZ NO00  P        A2031  5.525              eqc                          
 NC604BHZ NO00  P        A2031  5.450              eqc                          
 NC605BHZ NO00  P        A2031  5.600              eqc                          
 ODD1 HHN NS00  S        A2030 51.550              eqc                          
 ODD1 HHZ NS00  P        A2030 43.125              eqc                          
 SKAR HHN NS00  S        A2030 59.425              eqc                          
 SKAR HHZ NS00  P        A2030 47.700              eqc                          
 SNARTEHE NS00  S        A2031 18.300              eqc                          
 SUE  HHN NS00  S        A2031 31.300              eqc                          
 NBO  BHZ NS00  P        A2031  4.425                                           
 NC2  BHZ NS00  P        A2031  6.750                                           
 NC3  BHZ NS00  P        A2031 11.400                                           
 NC4  BHZ NS00  P        A2031 11.150                                           
 NBO  BHE NS00  S        A2031 27.550                                           
                                                                                
