 2021  1 5  242 52.5 L  59.822   7.898  0.0      39 0.0                        1
 Action:ARG 22-04-26 13:55 OP:feha STATUS:               ID:20210105024252     I
 2021-01-05-0241-32M.EQCS__092                                                 6
 detect_val=18.483278609669924                                                 3
 Detected using template: 2021_01_05t17_42_43_30_templ                         3
 EQC_detection_id: 2021_01_05t17_42_43_30_templ_20210105_024252200000          3
 STAT COM NTLO IPHASE   W HHMM SS.SSS   PAR1  PAR2 AGA OPE  AIN  RES W  DIS CAZ7
 ASK  HHE NS00  S        A 243 27.550              eqc                          
 ASK  HHN NS00  S        A 243 27.550              eqc                          
 ASK  HHZ NS00  P        A 243  7.900              eqc                          
 BLS5 HHE NS00  S        A 243  7.500              eqc                          
 BLS5 HHN NS00  S        A 243  7.500              eqc                          
 BLS5 HHZ NS00  P        A 242 55.950              eqc                          
 HYA  HHE NS00  S        A 243 30.675              eqc                          
 HYA  HHN NS00  S        A 243 30.675              eqc                          
 KMY  HHE NS00  S        A 243 26.700              eqc                          
 KMY  HHN NS00  S        A 243 26.700              eqc                          
 KMY  HHZ NS00  P        A 243  7.950              eqc                          
 NAO01BHE NO00  S        A 243 35.750              eqc                          
 NAO01BHN NO00  S        A 243 35.750              eqc                          
 NAO01BHZ NO00  P        A 243 13.200              eqc                          
 NAO02BHZ NO00  P        A 243 12.500              eqc                          
 NAO03BHZ NO00  P        A 243 11.800              eqc                          
 NAO04BHZ NO00  P        A 243 11.725              eqc                          
 NAO05BHZ NO00  P        A 243 12.525              eqc                          
 NBO00BHE NO00  S        A 243 36.900              eqc                          
 NBO00BHN NO00  S        A 243 36.900              eqc                          
 NBO00BHZ NO00  P        A 243 13.775              eqc                          
 NBO01BHZ NO00  P        A 243 14.175              eqc                          
 NBO02BHZ NO00  P        A 243 14.650              eqc                          
 NBO03BHZ NO00  P        A 243 14.100              eqc                          
 NBO04BHZ NO00  P        A 243 13.525              eqc                          
 NBO05BHZ NO00  P        A 243 13.500              eqc                          
 NC200BHZ NO00  P        A 243 16.100              eqc                          
 NC201BHZ NO00  P        A 243 16.575              eqc                          
 NC202BHZ NO00  P        A 243 16.075              eqc                          
 NC203BHZ NO00  P        A 243 15.525              eqc                          
 NC204BHE NO00  Sg       A 243 44.275              eqc                          
 NC204BHN NO00  Sg       A 243 44.275              eqc                          
 NC204BHZ NO00  P        A 243 15.950              eqc                          
 NC300BHZ NO00  P        A 243 19.475              eqc                          
 NC303BHE NO00  Sg       A 243 49.350              eqc                          
 NC303BHN NO00  Sg       A 243 49.349              eqc                          
 NC303BHZ NO00  P        A 243 18.875              eqc                          
 NC304BHZ NO00  P        A 243 19.325              eqc                          
 NC400BHZ NO00  P        A 243 20.502              eqc                          
 NC403BHZ NO00  P        A 243 19.475              eqc                          
 NC602BHE NO00  Sg       A 243 43.150              eqc                          
 NC602BHN NO00  Sg       A 243 43.150              eqc                          
 NC602BHZ NO00  P        A 243 15.825              eqc                          
 NC603BHZ NO00  P        A 243 14.875              eqc                          
 NC604BHZ NO00  P        A 243 14.799              eqc                          
 NC605BHZ NO00  P        A 243 14.950              eqc                          
 ODD1 HHE NS00  S        A 243  0.925              eqc                          
 ODD1 HHN NS00  S        A 243  0.925              eqc                          
 ODD1 HHZ NS00  P        A 242 52.525              eqc                          
 SKAR HHE NS00  S        A 243  8.775              eqc                          
 SKAR HHN NS00  S        A 243  8.775              eqc                          
 SKAR HHZ NS00  P        A 242 57.075              eqc                          
 SNARTEHE NS00  S        A 243 27.675              eqc                          
 SNARTEHN NS00  S        A 243 27.675              eqc                          
 SUE  HHE NS00  S        A 243 40.675              eqc                          
 SUE  HHN NS00  S        A 243 40.650              eqc                          
 NC2  BHZ NS00  P       2A 243 16.235               RR                          
 NC2  BHZ NS00  BAZ-P   2A 243 16.235  234.2  8.11  RR                          
 NC3  BHZ NS00  P       2A 243 19.606               RR                          
 NC3  BHZ NS00  BAZ-P   2A 243 19.606  234.2  8.11  RR                          
 NC6  BHZ NS00  P       2A 243 15.850               RR                          
 NC6  BHZ NS00  BAZ-P   2A 243 15.850  242.0  4.09  RR                          
 NAO  BHZ NS00  P       2A 243 12.512               RR                          
 NAO  BHZ NS00  BAZ-P   2A 243 12.512  234.2  8.11  RR                          
 NAO  BHE NS00  S       2A 243 35.459               RR                          
 NAO  BHE NS00  BAZ-S   2A 243 35.459  234.2  8.11  RR                          
 NBO  BHZ NS00  P       2A 243 13.775               RR                          
 NC4  BHZ NS00  P       2A 243 20.502               RR                          
 NBO  BHE NS00  S       2A 243 36.900               RR                          
 NBO  BHN NS00  S       2A 243 36.900               RR                          
                                                                                
