 2021  1 5 1743 55.3 L  59.822   7.898  0.0      40 0.0                        1
 Action:ARG 22-03-18 17:07 OP:feha STATUS:               ID:20210105174355     I
 2021-01-05-1742-35M.EQCS__092                                                 6
 detect_val=4.619068466126919                                                  3
 Detected using template: 2021_01_05t17_42_43_30_templ                         3
 EQC_detection_id: 2021_01_05t17_42_43_30_templ_20210105_174355225000          3
 STAT COM NTLO IPHASE   W HHMM SS.SSS   PAR1  PAR2 AGA OPE  AIN  RES W  DIS CAZ7
 ASK  HHN NS00  S        A1744 31.310              eqc                          
 ASK  HHZ NS00  P        A1744 10.415              eqc                          
 BLS5 HHE NS00  S        A1744 10.510              eqc                          
 BLS5 HHZ NS00  P        A1743 58.947              eqc                          
 HOMB HHE NS00  S        A1744 32.315              eqc                          
 HYA  HHN NS00  S        A1744 34.078              eqc                          
 KMY  HHN NS00  S        A1744 30.485              eqc                          
 KMY  HHZ NS00  P        A1744 10.480              eqc                          
 NAO01BHN NO00  S        A1744 38.797              eqc                          
 NAO01BHZ NO00  P        A1744 16.480              eqc                          
 NAO02BHZ NO00  P        A1744 15.557              eqc                          
 NAO03BHZ NO00  P        A1744 15.787              eqc                          
 NAO04BHZ NO00  P        A1744 15.512              eqc                          
 NAO05BHZ NO00  P        A1744 15.217              eqc                          
 NBO00BHE NO00  S        A1744 39.958              eqc                          
 NBO00BHZ NO00  P        A1744 17.830              eqc                          
 NBO01BHZ NO00  P        A1744 17.020              eqc                          
 NBO02BHZ NO00  P        A1744 17.703              eqc                          
 NBO03BHZ NO00  P        A1744 17.148              eqc                          
 NBO04BHZ NO00  Pg       A1744 17.608              eqc                          
 NBO05BHZ NO00  P        A1744 16.560              eqc                          
 NC200BHZ NO00  P        A1744 19.157              eqc                          
 NC201BHZ NO00  P        A1744 19.637              eqc                          
 NC202BHZ NO00  P        A1744 19.135              eqc                          
 NC203BHZ NO00  P        A1744 18.582              eqc                          
 NC204BHZ NO00  P        A1744 19.008              eqc                          
 NC300BHZ NO00  Pg       A1744 23.812              eqc                          
 NC303BHZ NO00  P        A1744 21.930              eqc                          
 NC304BHZ NO00  Pg       A1744 23.430              eqc                          
 NC400BHZ NO00  P        A1744 23.558              eqc                          
 NC403BHZ NO00  P        A1744 22.538              eqc                          
 NC602BHE NO00  Sg       A1744 46.633              eqc                          
 NC602BHZ NO00  P        A1744 20.025              eqc                          
 NC603BHZ NO00  P        A1744 17.950              eqc                          
 NC604BHZ NO00  P        A1744 17.858              eqc                          
 NC605BHZ NO00  P        A1744 18.830              eqc                          
 ODD1 HHN NS00  S        A1744  4.478              eqc                          
 ODD1 HHZ NS00  P        A1743 55.325              eqc                          
 SKAR HHN NS00  S        A1744 11.707              eqc                          
 SKAR HHZ NS00  P        A1744  0.110              eqc                          
 SNARTEHE NS00  S        A1744 30.380              eqc                          
 SUE  HHN NS00  S        A1744 43.623              eqc                          
 NBO  BHZ NS00  P        A1744 17.600               RR                          
 NC3  BHZ NS00  P        A1744 23.707               RR                          
 NAO  BHZ NS00  P        A1744 15.630               RR                          
 NAO  BHN NS00  S        A1744 38.658               RR                          
 NC2  BHZ NS00  P        A1744 19.157               RR                          
 NC4  BHZ NS00  P        A1744 23.558               RR                          
 NC6  BHZ NS00  P        A1744 18.610               RR                          
 NC6  BHE NS00  S        A1744 46.377               RR                          
 NBO  BHE NS00  S        A1744 39.958               RR                          
 NC6  BHZ NS00  P        A1744 18.664               RR                          
 NC6  BHE NS00  S        A1744 46.237               RR                          
                                                                                
