 2021  1 5 1516 27.3 L  59.822   7.898  0.0      39 0.0                        1
 Action:ARG 22-03-18 17:07 OP:feha STATUS:               ID:20210105151627     I
 2021-01-05-1515-07M.EQCS__092                                                 6
 detect_val=9.245695911347866                                                  3
 Detected using template: 2021_01_05t17_42_43_30_templ                         3
 EQC_detection_id: 2021_01_05t17_42_43_30_templ_20210105_151627025000          3
 STAT COM NTLO IPHASE   W HHMM SS.SSS   PAR1  PAR2 AGA OPE  AIN  RES W  DIS CAZ7
 ASK  HHN NS00  S        A1517  2.385              eqc                          
 ASK  HHZ NS00  P        A1516 42.715              eqc                          
 BLS5 HHE NS00  S        A1516 42.320              eqc                          
 BLS5 HHZ NS00  P        A1516 30.767              eqc                          
 HOMB HHE NS00  S        A1517  3.743              eqc                          
 HYA  HHN NS00  S        A1517  5.500              eqc                          
 KMY  HHN NS00  S        A1517  1.542              eqc                          
 KMY  HHZ NS00  P        A1516 42.792              eqc                          
 NAO01BHN NO00  S        A1517 10.582              eqc                          
 NAO01BHZ NO00  P        A1516 48.047              eqc                          
 NAO02BHZ NO00  P        A1516 47.340              eqc                          
 NAO03BHZ NO00  P        A1516 46.650              eqc                          
 NAO05BHZ NO00  P        A1516 47.373              eqc                          
 NBO00BHE NO00  S        A1517 11.738              eqc                          
 NBO01BHZ NO00  P        A1516 49.020              eqc                          
 NBO02BHZ NO00  P        A1516 49.500              eqc                          
 NBO03BHZ NO00  P        A1516 48.950              eqc                          
 NBO04BHZ NO00  Pg       A1516 49.398              eqc                          
 NBO05BHZ NO00  P        A1516 48.350              eqc                          
 NC200BHZ NO00  P        A1516 50.945              eqc                          
 NC201BHZ NO00  P        A1516 51.425              eqc                          
 NC202BHZ NO00  P        A1516 50.917              eqc                          
 NC203BHZ NO00  P        A1516 50.373              eqc                          
 NC204BHZ NO00  P        A1516 50.800              eqc                          
 NC300BHZ NO00  Pg       A1516 55.597              eqc                          
 NC303BHZ NO00  P        A1516 53.720              eqc                          
 NC304BHZ NO00  Pg       A1516 55.225              eqc                          
 NC400BHZ NO00  P        A1516 55.345              eqc                          
 NC403BHZ NO00  P        A1516 54.318              eqc                          
 NC602BHE NO00  Sg       A1517 18.000              eqc                          
 NC602BHZ NO00  P        A1516 50.675              eqc                          
 NC603BHZ NO00  P        A1516 49.718              eqc                          
 NC604BHZ NO00  P        A1516 49.645              eqc                          
 NC605BHZ NO00  P        A1516 49.795              eqc                          
 ODD1 HHN NS00  S        A1516 35.773              eqc                          
 ODD1 HHZ NS00  P        A1516 27.343              eqc                          
 SKAR HHN NS00  S        A1516 43.593              eqc                          
 SKAR HHZ NS00  P        A1516 31.890              eqc                          
 SNARTEHE NS00  S        A1517  2.535              eqc                          
 SUE  HHN NS00  S        A1517 15.488              eqc                          
 NBO  BHZ NS00  P        A1516 48.950               RR                          
 NAO  BHZ NS00  P        A1516 47.679               RR                          
 NC2  BHZ NS00  P        A1516 50.945               RR                          
 NC3  BHZ NS00  P        A1516 55.597               RR                          
 NC4  BHZ NS00  P        A1516 55.345               RR                          
 NC6  BHE NS00  S        A1517 18.177               RR                          
 NAO  BHZ NS00  P        A1516 47.423               RR                          
 NBO  BHE NS00  S        A1517 11.738               RR                          
 NC6  BHE NS00  S        A1517 18.037               RR                          
                                                                                
