 2021  1 5 1632 38.4 L  59.822   7.898  0.0      40 0.0                        1
 Action:ARG 22-03-18 17:07 OP:feha STATUS:               ID:20210105163238     I
 2021-01-05-1631-18M.EQCS__092                                                 6
 detect_val=5.0000719130039215                                                 3
 Detected using template: 2021_01_05t17_42_43_30_templ                         3
 EQC_detection_id: 2021_01_05t17_42_43_30_templ_20210105_163238175000          3
 STAT COM NTLO IPHASE   W HHMM SS.SSS   PAR1  PAR2 AGA OPE  AIN  RES W  DIS CAZ7
 ASK  HHN NS00  S        A1633 13.508              eqc                          
 ASK  HHZ NS00  P        A1632 54.950              eqc                          
 BLS5 HHE NS00  S        A1632 53.445              eqc                          
 BLS5 HHZ NS00  P        A1632 41.890              eqc                          
 HOMB HHE NS00  S        A1633 14.898              eqc                          
 HYA  HHN NS00  S        A1633 16.645              eqc                          
 KMY  HHN NS00  S        A1633 12.672              eqc                          
 KMY  HHZ NS00  P        A1632 53.920              eqc                          
 NAO01BHN NO00  S        A1633 21.755              eqc                          
 NAO01BHZ NO00  P        A1632 59.197              eqc                          
 NAO02BHZ NO00  P        A1632 58.505              eqc                          
 NAO03BHZ NO00  P        A1632 58.432              eqc                          
 NAO04BHZ NO00  P        A1632 57.365              eqc                          
 NAO05BHZ NO00  P        A1632 58.833              eqc                          
 NBO00BHE NO00  S        A1633 22.898              eqc                          
 NBO00BHZ NO00  P        A1633  0.705              eqc                          
 NBO01BHZ NO00  P        A1633  0.172              eqc                          
 NBO02BHZ NO00  P        A1633  0.647              eqc                          
 NBO03BHZ NO00  P        A1633  0.098              eqc                          
 NBO04BHZ NO00  Pg       A1633  0.545              eqc                          
 NBO05BHZ NO00  P        A1632 59.500              eqc                          
 NC200BHZ NO00  P        A1633  2.103              eqc                          
 NC201BHZ NO00  P        A1633  2.567              eqc                          
 NC202BHZ NO00  P        A1633  2.072              eqc                          
 NC203BHZ NO00  P        A1633  1.530              eqc                          
 NC204BHZ NO00  P        A1633  1.950              eqc                          
 NC300BHZ NO00  Pg       A1633  6.293              eqc                          
 NC303BHZ NO00  P        A1633  4.527              eqc                          
 NC304BHZ NO00  Pg       A1633  6.383              eqc                          
 NC400BHZ NO00  P        A1633  6.290              eqc                          
 NC403BHZ NO00  P        A1633  5.945              eqc                          
 NC602BHE NO00  Sg       A1633 29.473              eqc                          
 NC602BHZ NO00  P        A1633  2.375              eqc                          
 NC603BHZ NO00  P        A1633  0.410              eqc                          
 NC604BHZ NO00  P        A1633  1.770              eqc                          
 NC605BHZ NO00  P        A1633  0.700              eqc                          
 ODD1 HHN NS00  S        A1632 46.892              eqc                          
 ODD1 HHZ NS00  P        A1632 38.470              eqc                          
 SKAR HHN NS00  S        A1632 54.763              eqc                          
 SKAR HHZ NS00  P        A1632 43.505              eqc                          
 SNARTEHE NS00  S        A1633 13.665              eqc                          
 SUE  HHN NS00  S        A1633 26.617              eqc                          
 NBO  BHZ NS00  P        A1633  0.637               RR                          
 NBO  BHE NS00  S        A1633 23.200               RR                          
 NC3  BHZ NS00  P        A1633  6.526               RR                          
 NAO  BHZ NS00  P        A1632 58.621               RR                          
 NAO  BHN NS00  S        A1633 21.608               RR                          
 NC2  BHZ NS00  P        A1633  2.103               RR                          
 NC4  BHZ NS00  P        A1633  6.290               RR                          
 NC6  BHZ NS00  P        A1633  1.423               RR                          
 NC6  BHE NS00  S        A1633 29.352               RR                          
 NC6  BHZ NS00  P        A1633  1.713               RR                          
 NC6  BHE NS00  S        A1633 29.212               RR                          
                                                                                
