 2021  1 5 1742 54.8 L  59.822   7.898  0.0      40 0.0                        1
 Action:ARG 22-04-26 13:55 OP:feha STATUS:               ID:20210105174254     I
 2021-01-05-1741-34M.EQCS__092                                                 6
 detect_val=51.51272112131119                                                  3
 Detected using template: 2021_01_05t17_42_43_30_templ                         3
 EQC_detection_id: 2021_01_05t17_42_43_30_templ_20210105_174254575000          3
 STAT COM NTLO IPHASE   W HHMM SS.SSS   PAR1  PAR2 AGA OPE  AIN  RES W  DIS CAZ7
 ASK  HHE NS00  S        A1743 29.900              eqc                          
 ASK  HHN NS00  S        A1743 29.900              eqc                          
 ASK  HHZ NS00  P        A1743 10.250              eqc                          
 BLS5 HHE NS00  S        A1743  9.850              eqc                          
 BLS5 HHN NS00  S        A1743  9.850              eqc                          
 BLS5 HHZ NS00  P        A1742 58.300              eqc                          
 HOMB HHE NS00  S        A1743 31.300              eqc                          
 HOMB HHN NS00  S        A1743 31.300              eqc                          
 HYA  HHE NS00  S        A1743 33.050              eqc                          
 HYA  HHN NS00  S        A1743 33.050              eqc                          
 KMY  HHE NS00  S        A1743 29.050              eqc                          
 KMY  HHN NS00  S        A1743 29.050              eqc                          
 KMY  HHZ NS00  P        A1743 10.300              eqc                          
 NAO01BHE NO00  S        A1743 38.125              eqc                          
 NAO01BHN NO00  S        A1743 38.125              eqc                          
 NAO01BHZ NO00  P        A1743 15.575              eqc                          
 NAO02BHZ NO00  P        A1743 14.875              eqc                          
 NAO03BHZ NO00  P        A1743 14.175              eqc                          
 NAO04BHZ NO00  P        A1743 14.100              eqc                          
 NAO05BHZ NO00  P        A1743 14.900              eqc                          
 NBO00BHE NO00  S        A1743 39.275              eqc                          
 NBO00BHN NO00  S        A1743 39.275              eqc                          
 NBO00BHZ NO00  P        A1743 16.150              eqc                          
 NBO01BHZ NO00  P        A1743 16.550              eqc                          
 NBO02BHZ NO00  P        A1743 17.025              eqc                          
 NBO03BHZ NO00  P        A1743 16.475              eqc                          
 NBO04BHZ NO00  P        A1743 15.900              eqc                          
 NBO05BHZ NO00  P        A1743 15.875              eqc                          
 NC200BHZ NO00  P        A1743 18.475              eqc                          
 NC201BHZ NO00  P        A1743 18.950              eqc                          
 NC202BHZ NO00  P        A1743 18.450              eqc                          
 NC203BHZ NO00  P        A1743 17.900              eqc                          
 NC204BHE NO00  Sg       A1743 46.650              eqc                          
 NC204BHN NO00  Sg       A1743 46.650              eqc                          
 NC204BHZ NO00  P        A1743 18.325              eqc                          
 NC300BHZ NO00  P        A1743 21.850              eqc                          
 NC303BHE NO00  Sg       A1743 51.725              eqc                          
 NC303BHN NO00  Sg       A1743 51.725              eqc                          
 NC303BHZ NO00  P        A1743 21.250              eqc                          
 NC304BHZ NO00  P        A1743 21.700              eqc                          
 NC400BHZ NO00  P        A1743 22.875              eqc                          
 NC403BHZ NO00  P        A1743 21.850              eqc                          
 NC602BHE NO00  Sg       A1743 45.525              eqc                          
 NC602BHN NO00  Sg       A1743 45.525              eqc                          
 NC602BHZ NO00  P        A1743 18.200              eqc                          
 NC603BHZ NO00  P        A1743 17.250              eqc                          
 NC604BHZ NO00  P        A1743 17.175              eqc                          
 NC605BHZ NO00  P        A1743 17.325              eqc                          
 ODD1 HHE NS00  S        A1743  3.275              eqc                          
 ODD1 HHN NS00  S        A1743  3.275              eqc                          
 ODD1 HHZ NS00  P        A1742 54.875              eqc                          
 SKAR HHE NS00  S        A1743 11.175              eqc                          
 SKAR HHN NS00  S        A1743 11.175              eqc                          
 SKAR HHZ NS00  P        A1742 59.450              eqc                          
 SNARTEHE NS00  S        A1743 30.050              eqc                          
 SNARTEHN NS00  S        A1743 30.050              eqc                          
 SUE  HHE NS00  S        A1743 43.025              eqc                          
 SUE  HHN NS00  S        A1743 43.025              eqc                          
 NC2  BHZ NS00  P       2A1743 18.610               RR                          
 NC2  BHZ NS00  BAZ-P   2A1743 18.610  234.2  8.11  RR                          
 NC2  BHE NS00  S       2A1743 47.108               RR                          
 NC2  BHE NS00  BAZ-S   2A1743 47.108  234.2  8.11  RR                          
 NC3  BHE NS00  S       2A1743 52.432               RR                          
 NC3  BHE NS00  BAZ-S   2A1743 52.432  234.2  8.11  RR                          
 NC6  BHZ NS00  P       2A1743 18.197               RR                          
 NC6  BHZ NS00  BAZ-P   2A1743 18.197  242.0  4.09  RR                          
 NC6  BHE NS00  S       2A1743 45.433               RR                          
 NC6  BHE NS00  BAZ-S   2A1743 45.433  242.0  4.09  RR                          
 NAO  BHZ NS00  P       2A1743 14.894               RR                          
 NAO  BHZ NS00  BAZ-P   2A1743 14.894  234.2  8.11  RR                          
 NAO  BHE NS00  S       2A1743 37.809               RR                          
 NAO  BHE NS00  BAZ-S   2A1743 37.809  234.2  8.11  RR                          
 NBO  BHZ NS00  P       2A1743 16.150               RR                          
 NC3  BHZ NS00  P       2A1743 21.850               RR                          
 NC4  BHZ NS00  P       2A1743 22.875               RR                          
 NBO  BHE NS00  S       2A1743 39.275               RR                          
 NBO  BHN NS00  S       2A1743 39.275               RR                          
                                                                                
