 2021  1 5 2154 29.6 L  59.822   7.898  0.0      40 0.0                        1
 Action:ARG 22-04-26 13:55 OP:feha STATUS:               ID:20210105215429     I
 2021-01-05-2153-09M.EQCS__092                                                 6
 detect_val=5.290489899590048                                                  3
 Detected using template: 2021_01_05t17_42_43_30_templ                         3
 EQC_detection_id: 2021_01_05t17_42_43_30_templ_20210105_215429300000          3
 STAT COM NTLO IPHASE   W HHMM SS.SSS   PAR1  PAR2 AGA OPE  AIN  RES W  DIS CAZ7
 ASK  HHE NS00  S        A2155  4.650              eqc                          
 ASK  HHN NS00  S        A2155  4.650              eqc                          
 ASK  HHZ NS00  P        A2154 45.100              eqc                          
 BLS5 HHE NS00  S        A2154 44.575              eqc                          
 BLS5 HHN NS00  S        A2154 44.775              eqc                          
 BLS5 HHZ NS00  P        A2154 32.850              eqc                          
 HOMB HHE NS00  S        A2155  6.000              eqc                          
 HOMB HHN NS00  S        A2155  6.800              eqc                          
 HYA  HHE NS00  S        A2155  7.806              eqc                          
 HYA  HHN NS00  S        A2155  7.800              eqc                          
 KMY  HHN NS00  S        A2155  3.775              eqc                          
 NAO01BHE NO00  S        A2155 12.925              eqc                          
 NAO01BHN NO00  S        A2155 13.701              eqc                          
 NAO01BHZ NO00  P        A2154 50.300              eqc                          
 NAO02BHZ NO00  P        A2154 49.600              eqc                          
 NAO03BHZ NO00  P        A2154 48.900              eqc                          
 NAO04BHZ NO00  P        A2154 48.825              eqc                          
 NAO05BHZ NO00  P        A2154 49.025              eqc                          
 NBO00BHE NO00  S        A2155 14.000              eqc                          
 NBO00BHN NO00  S        A2155 14.400              eqc                          
 NBO00BHZ NO00  P        A2154 51.700              eqc                          
 NBO01BHZ NO00  P        A2154 51.275              eqc                          
 NBO02BHZ NO00  P        A2154 52.625              eqc                          
 NBO03BHZ NO00  P        A2154 51.200              eqc                          
 NBO04BHZ NO00  P        A2154 50.125              eqc                          
 NBO05BHZ NO00  P        A2154 51.447              eqc                          
 NC200BHZ NO00  P        A2154 53.201              eqc                          
 NC201BHZ NO00  P        A2154 53.675              eqc                          
 NC202BHZ NO00  P        A2154 54.075              eqc                          
 NC203BHZ NO00  P        A2154 52.650              eqc                          
 NC204BHE NO00  Sg       A2155 21.375              eqc                          
 NC204BHN NO00  Sg       A2155 21.175              eqc                          
 NC204BHZ NO00  P        A2154 52.700              eqc                          
 NC300BHZ NO00  P        A2154 55.925              eqc                          
 NC303BHE NO00  Sg       A2155 26.220              eqc                          
 NC303BHN NO00  Sg       A2155 25.925              eqc                          
 NC303BHZ NO00  P        A2154 55.975              eqc                          
 NC304BHZ NO00  P        A2154 56.425              eqc                          
 NC400BHZ NO00  P        A2154 57.726              eqc                          
 NC403BHZ NO00  P        A2154 56.901              eqc                          
 NC602BHE NO00  Sg       A2155 20.998              eqc                          
 NC602BHN NO00  Sg       A2155 20.247              eqc                          
 NC602BHZ NO00  P        A2154 52.925              eqc                          
 NC603BHZ NO00  P        A2154 51.975              eqc                          
 NC604BHZ NO00  P        A2154 52.778              eqc                          
 NC605BHZ NO00  P        A2154 51.404              eqc                          
 ODD1 HHE NS00  S        A2154 38.025              eqc                          
 ODD1 HHN NS00  S        A2154 38.025              eqc                          
 ODD1 HHZ NS00  P        A2154 29.625              eqc                          
 SKAR HHE NS00  S        A2154 45.900              eqc                          
 SKAR HHN NS00  S        A2154 45.900              eqc                          
 SKAR HHZ NS00  P        A2154 34.175              eqc                          
 SNARTEHE NS00  S        A2155  5.475              eqc                          
 SNARTEHN NS00  S        A2155  4.750              eqc                          
 SUE  HHE NS00  S        A2155 17.775              eqc                          
 SUE  HHN NS00  S        A2155 17.375              eqc                          
 NC2  BHZ NS00  P       2A2154 53.280               RR                          
 NC2  BHZ NS00  BAZ-P   2A2154 53.280  234.2  8.11  RR                          
 NC2  BHN NS00  S       2A2155 21.833               RR                          
 NC2  BHN NS00  BAZ-S   2A2155 21.833  234.2  8.11  RR                          
 NC3  BHZ NS00  P       2A2154 56.696               RR                          
 NC3  BHZ NS00  BAZ-P   2A2154 56.696  234.2  8.11  RR                          
 NC4  BHZ NS00  P       2A2154 57.452               RR                          
 NC4  BHZ NS00  BAZ-P   2A2154 57.452  234.2  8.11  RR                          
 NC6  BHZ NS00  P       2A2154 52.915               RR                          
 NC6  BHZ NS00  BAZ-P   2A2154 52.915  242.0  4.09  RR                          
 NC6  BHE NS00  S       2A2155 20.146               RR                          
 NC6  BHE NS00  BAZ-S   2A2155 20.146  242.0  4.09  RR                          
 NAO  BHZ NS00  P       2A2154 49.654               RR                          
 NAO  BHZ NS00  BAZ-P   2A2154 49.654  234.2  8.11  RR                          
 NBO  BHZ NS00  P       2A2154 51.700               RR                          
 NAO  BHZ NS00  P       2A2154 49.731               RR                          
 NAO  BHZ NS00  BAZ-P   2A2154 49.731  234.0  4.67  RR                          
 NBO  BHE NS00  S       2A2155 14.000               RR                          
 NBO  BHN NS00  S       2A2155 14.400               RR                          
                                                                                
