 2021  1 5 2130 29.7 L  59.822   7.898  0.0      40 0.0                        1
 Action:ARG 22-04-26 13:55 OP:feha STATUS:               ID:20210105213029     I
 2021-01-05-2129-09M.EQCS__092                                                 6
 detect_val=5.433742699656155                                                  3
 Detected using template: 2021_01_05t17_42_43_30_templ                         3
 EQC_detection_id: 2021_01_05t17_42_43_30_templ_20210105_213029475000          3
 STAT COM NTLO IPHASE   W HHMM SS.SSS   PAR1  PAR2 AGA OPE  AIN  RES W  DIS CAZ7
 ASK  HHE NS00  S        A2131  4.575              eqc                          
 ASK  HHN NS00  S        A2131  4.600              eqc                          
 ASK  HHZ NS00  P        A2130 45.925              eqc                          
 BLS5 HHE NS00  S        A2130 44.750              eqc                          
 BLS5 HHN NS00  S        A2130 44.750              eqc                          
 BLS5 HHZ NS00  P        A2130 33.500              eqc                          
 HOMB HHE NS00  S        A2131  6.625              eqc                          
 HOMB HHN NS00  S        A2131  5.650              eqc                          
 HYA  HHE NS00  S        A2131  7.975              eqc                          
 HYA  HHN NS00  S        A2131  7.950              eqc                          
 KMY  HHE NS00  S        A2131  3.975              eqc                          
 KMY  HHN NS00  S        A2131  3.275              eqc                          
 KMY  HHZ NS00  P        A2130 45.200              eqc                          
 NAO01BHE NO00  S        A2131 12.706              eqc                          
 NAO01BHN NO00  S        A2131 13.025              eqc                          
 NAO01BHZ NO00  P        A2130 50.475              eqc                          
 NAO02BHZ NO00  P        A2130 49.975              eqc                          
 NAO03BHZ NO00  P        A2130 48.725              eqc                          
 NAO04BHZ NO00  P        A2130 49.000              eqc                          
 NAO05BHZ NO00  P        A2130 50.606              eqc                          
 NBO00BHE NO00  S        A2131 14.175              eqc                          
 NBO00BHN NO00  S        A2131 14.200              eqc                          
 NBO00BHZ NO00  P        A2130 51.050              eqc                          
 NBO01BHZ NO00  P        A2130 51.800              eqc                          
 NBO02BHZ NO00  P        A2130 51.925              eqc                          
 NBO03BHZ NO00  P        A2130 51.550              eqc                          
 NBO04BHZ NO00  P        A2130 50.800              eqc                          
 NBO05BHZ NO00  P        A2130 51.475              eqc                          
 NC200BHZ NO00  P        A2130 53.400              eqc                          
 NC201BHZ NO00  P        A2130 53.850              eqc                          
 NC202BHZ NO00  P        A2130 53.350              eqc                          
 NC203BHZ NO00  P        A2130 52.800              eqc                          
 NC204BHE NO00  Sg       A2131 21.550              eqc                          
 NC204BHN NO00  Sg       A2131 21.575              eqc                          
 NC204BHZ NO00  P        A2130 53.225              eqc                          
 NC300BHZ NO00  P        A2130 56.750              eqc                          
 NC303BHE NO00  Sg       A2131 26.825              eqc                          
 NC303BHN NO00  Sg       A2131 25.975              eqc                          
 NC303BHZ NO00  P        A2130 56.044              eqc                          
 NC304BHZ NO00  P        A2130 57.125              eqc                          
 NC400BHZ NO00  P        A2130 57.675              eqc                          
 NC403BHZ NO00  P        A2130 56.425              eqc                          
 NC602BHE NO00  Sg       A2131 20.169              eqc                          
 NC602BHN NO00  Sg       A2131 20.925              eqc                          
 NC602BHZ NO00  P        A2130 52.600              eqc                          
 NC603BHZ NO00  P        A2130 53.000              eqc                          
 NC604BHZ NO00  P        A2130 51.416              eqc                          
 NC605BHZ NO00  P        A2130 52.350              eqc                          
 ODD1 HHE NS00  S        A2130 37.850              eqc                          
 ODD1 HHN NS00  S        A2130 38.175              eqc                          
 ODD1 HHZ NS00  P        A2130 29.775              eqc                          
 SKAR HHE NS00  S        A2130 46.075              eqc                          
 SKAR HHN NS00  S        A2130 46.075              eqc                          
 SKAR HHZ NS00  P        A2130 34.350              eqc                          
 SNARTEHE NS00  S        A2131  4.750              eqc                          
 SNARTEHN NS00  S        A2131  5.275              eqc                          
 SUE  HHE NS00  S        A2131 17.925              eqc                          
 SUE  HHN NS00  S        A2131 17.950              eqc                          
 NC2  BHZ NS00  P       2A2130 53.542               RR                          
 NC2  BHZ NS00  BAZ-P   2A2130 53.542  234.2  8.11  RR                          
 NC3  BHZ NS00  P       2A2130 56.854               RR                          
 NC3  BHZ NS00  BAZ-P   2A2130 56.854  234.2  8.11  RR                          
 NC4  BHZ NS00  P       2A2130 57.329               RR                          
 NC4  BHZ NS00  BAZ-P   2A2130 57.329  234.2  8.11  RR                          
 NC6  BHZ NS00  P       2A2130 52.789               RR                          
 NC6  BHZ NS00  BAZ-P   2A2130 52.789  242.0  4.09  RR                          
 NC6  BHE NS00  S       2A2131 20.321               RR                          
 NC6  BHE NS00  BAZ-S   2A2131 20.321  242.0  4.09  RR                          
 NAO  BHZ NS00  P       2A2130 49.571               RR                          
 NAO  BHZ NS00  BAZ-P   2A2130 49.571  234.2  8.11  RR                          
 NAO  BHE NS00  S       2A2131 12.709               RR                          
 NAO  BHE NS00  BAZ-S   2A2131 12.709  234.2  8.11  RR                          
 NBO  BHZ NS00  P       2A2130 51.050               RR                          
 NBO  BHE NS00  S       2A2131 14.175               RR                          
 NBO  BHN NS00  S       2A2131 14.200               RR                          
                                                                                
