 2021  1 5 2128 35.9 L  59.822   7.898  0.0      40 0.0                        1
 Action:ARG 22-03-18 17:07 OP:feha STATUS:               ID:20210105212835     I
 2021-01-05-2127-15M.EQCS__092                                                 6
 detect_val=4.98500769585371                                                   3
 Detected using template: 2021_01_05t17_42_43_30_templ                         3
 EQC_detection_id: 2021_01_05t17_42_43_30_templ_20210105_212835625000          3
 STAT COM NTLO IPHASE   W HHMM SS.SSS   PAR1  PAR2 AGA OPE  AIN  RES W  DIS CAZ7
 ASK  HHN NS00  S        A2129 10.985              eqc                          
 ASK  HHZ NS00  P        A2128 51.415              eqc                          
 BLS5 HHE NS00  S        A2128 50.907              eqc                          
 BLS5 HHZ NS00  P        A2128 40.025              eqc                          
 HOMB HHE NS00  S        A2129 12.338              eqc                          
 HYA  HHN NS00  S        A2129 14.102              eqc                          
 KMY  HHN NS00  S        A2129 10.130              eqc                          
 KMY  HHZ NS00  P        A2128 51.383              eqc                          
 NAO01BHN NO00  S        A2129 19.205              eqc                          
 NAO01BHZ NO00  P        A2128 56.642              eqc                          
 NAO02BHZ NO00  P        A2128 55.955              eqc                          
 NAO03BHZ NO00  P        A2128 55.252              eqc                          
 NAO04BHZ NO00  P        A2128 55.182              eqc                          
 NAO05BHZ NO00  P        A2128 55.983              eqc                          
 NBO00BHE NO00  S        A2129 20.352              eqc                          
 NBO00BHZ NO00  P        A2128 57.233              eqc                          
 NBO01BHZ NO00  P        A2128 57.633              eqc                          
 NBO02BHZ NO00  P        A2128 58.108              eqc                          
 NBO03BHZ NO00  P        A2128 57.745              eqc                          
 NBO04BHZ NO00  Pg       A2128 58.005              eqc                          
 NBO05BHZ NO00  P        A2128 57.383              eqc                          
 NC200BHZ NO00  P        A2128 59.900              eqc                          
 NC201BHZ NO00  P        A2129  0.030              eqc                          
 NC202BHZ NO00  P        A2129  0.472              eqc                          
 NC203BHZ NO00  P        A2128 58.810              eqc                          
 NC204BHZ NO00  P        A2128 59.405              eqc                          
 NC300BHZ NO00  Pg       A2129  4.537              eqc                          
 NC303BHZ NO00  P        A2129  2.178              eqc                          
 NC304BHZ NO00  Pg       A2129  3.530              eqc                          
 NC400BHZ NO00  P        A2129  5.058              eqc                          
 NC403BHZ NO00  P        A2129  3.250              eqc                          
 NC602BHE NO00  Sg       A2129 26.420              eqc                          
 NC602BHZ NO00  P        A2129  0.095              eqc                          
 NC603BHZ NO00  P        A2128 58.892              eqc                          
 NC604BHZ NO00  P        A2128 57.943              eqc                          
 NC605BHZ NO00  P        A2128 57.932              eqc                          
 ODD1 HHN NS00  S        A2128 44.360              eqc                          
 ODD1 HHZ NS00  P        A2128 35.932              eqc                          
 SKAR HHN NS00  S        A2128 52.222              eqc                          
 SKAR HHZ NS00  P        A2128 40.500              eqc                          
 SNARTEHE NS00  S        A2129 11.113              eqc                          
 SUE  HHN NS00  S        A2129 24.095              eqc                          
 NBO  BHZ NS00  P        A2128 57.475               RR                          
 NBO  BHE NS00  S        A2129 20.650               RR                          
 NC3  BHZ NS00  P        A2129  4.525               RR                          
 NAO  BHZ NS00  P        A2128 55.999               RR                          
 NC2  BHZ NS00  P        A2128 59.900               RR                          
 NC4  BHZ NS00  P        A2129  5.058               RR                          
 NC6  BHZ NS00  P        A2128 59.017               RR                          
 NC6  BHE NS00  S        A2129 26.802               RR                          
 NAO  BHZ NS00  P        A2128 56.065               RR                          
 NC6  BHZ NS00  P        A2128 59.200               RR                          
 NC6  BHE NS00  S        A2129 26.662               RR                          
                                                                                
