 2021  1 5 2154 30.2 L  59.822   7.898  0.0      39 0.0                        1
 Action:ARG 22-03-18 17:07 OP:feha STATUS:               ID:20210105215430     I
 2021-01-05-2153-09M.EQCS__092                                                 6
 detect_val=4.224962487816811                                                  3
 Detected using template: 2021_01_05t17_42_43_30_templ                         3
 EQC_detection_id: 2021_01_05t17_42_43_30_templ_20210105_215429300000          3
 STAT COM NTLO IPHASE   W HHMM SS.SSS   PAR1  PAR2 AGA OPE  AIN  RES W  DIS CAZ7
 ASK  HHN NS00  S        A2155  4.668              eqc                          
 ASK  HHZ NS00  P        A2154 45.102              eqc                          
 BLS5 HHE NS00  S        A2154 44.587              eqc                          
 BLS5 HHZ NS00  P        A2154 32.852              eqc                          
 HOMB HHE NS00  S        A2155  6.000              eqc                          
 HYA  HHN NS00  S        A2155  7.803              eqc                          
 KMY  HHN NS00  S        A2155  3.812              eqc                          
 NAO01BHN NO00  S        A2155 13.730              eqc                          
 NAO01BHZ NO00  P        A2154 50.328              eqc                          
 NAO02BHZ NO00  P        A2154 49.633              eqc                          
 NAO03BHZ NO00  P        A2154 48.932              eqc                          
 NAO04BHZ NO00  P        A2154 48.855              eqc                          
 NAO05BHZ NO00  P        A2154 49.263              eqc                          
 NBO00BHE NO00  S        A2155 14.037              eqc                          
 NBO00BHZ NO00  P        A2154 51.725              eqc                          
 NBO01BHZ NO00  P        A2154 51.300              eqc                          
 NBO02BHZ NO00  P        A2154 52.653              eqc                          
 NBO03BHZ NO00  P        A2154 51.222              eqc                          
 NBO04BHZ NO00  Pg       A2154 51.175              eqc                          
 NBO05BHZ NO00  P        A2154 51.475              eqc                          
 NC200BHZ NO00  P        A2154 53.222              eqc                          
 NC201BHZ NO00  P        A2154 53.703              eqc                          
 NC202BHZ NO00  P        A2154 54.210              eqc                          
 NC203BHZ NO00  P        A2154 52.665              eqc                          
 NC204BHZ NO00  P        A2154 53.087              eqc                          
 NC300BHZ NO00  Pg       A2154 57.485              eqc                          
 NC303BHZ NO00  P        A2154 56.010              eqc                          
 NC304BHZ NO00  Pg       A2154 57.508              eqc                          
 NC400BHZ NO00  P        A2154 57.750              eqc                          
 NC403BHZ NO00  P        A2154 56.925              eqc                          
 NC602BHE NO00  Sg       A2155 21.277              eqc                          
 NC602BHZ NO00  P        A2154 52.953              eqc                          
 NC603BHZ NO00  P        A2154 51.995              eqc                          
 NC604BHZ NO00  P        A2154 51.913              eqc                          
 NC605BHZ NO00  P        A2154 53.195              eqc                          
 ODD1 HHN NS00  S        A2154 38.045              eqc                          
 ODD1 HHZ NS00  P        A2154 30.270              eqc                          
 SKAR HHN NS00  S        A2154 45.903              eqc                          
 SKAR HHZ NS00  P        A2154 34.180              eqc                          
 SNARTEHE NS00  S        A2155  5.510              eqc                          
 SUE  HHN NS00  S        A2155 17.385              eqc                          
 NBO  BHZ NS00  P        A2154 52.400               RR                          
 NBO  BHE NS00  S        A2155 14.325               RR                          
 NAO  BHZ NS00  P        A2154 49.734               RR                          
 NC2  BHZ NS00  P        A2154 53.222               RR                          
 NC3  BHZ NS00  P        A2154 57.485               RR                          
 NC4  BHZ NS00  P        A2154 57.750               RR                          
 NAO  BHZ NS00  P        A2154 49.824               RR                          
                                                                                
