 2021  1 5 2042 14.4 L  59.822   7.898  0.0      40 0.0                        1
 Action:ARG 22-03-18 17:07 OP:feha STATUS:               ID:20210105204214     I
 2021-01-05-2040-54M.EQCS__092                                                 6
 detect_val=4.032146412879229                                                  3
 Detected using template: 2021_01_05t17_42_43_30_templ                         3
 EQC_detection_id: 2021_01_05t17_42_43_30_templ_20210105_204214100000          3
 STAT COM NTLO IPHASE   W HHMM SS.SSS   PAR1  PAR2 AGA OPE  AIN  RES W  DIS CAZ7
 ASK  HHN NS00  S        A2042 49.818              eqc                          
 ASK  HHZ NS00  P        A2042 29.512              eqc                          
 BLS5 HHE NS00  S        A2042 29.363              eqc                          
 BLS5 HHZ NS00  P        A2042 17.695              eqc                          
 HOMB HHE NS00  S        A2042 50.958              eqc                          
 HYA  HHN NS00  S        A2042 52.578              eqc                          
 KMY  HHN NS00  S        A2042 48.765              eqc                          
 KMY  HHZ NS00  P        A2042 29.855              eqc                          
 NAO01BHN NO00  S        A2042 57.538              eqc                          
 NAO01BHZ NO00  P        A2042 35.910              eqc                          
 NAO02BHZ NO00  P        A2042 34.528              eqc                          
 NAO03BHZ NO00  P        A2042 33.898              eqc                          
 NAO04BHZ NO00  P        A2042 33.642              eqc                          
 NAO05BHZ NO00  P        A2042 35.235              eqc                          
 NBO00BHE NO00  S        A2042 58.737              eqc                          
 NBO00BHZ NO00  P        A2042 36.693              eqc                          
 NBO01BHZ NO00  P        A2042 35.970              eqc                          
 NBO02BHZ NO00  P        A2042 36.655              eqc                          
 NBO03BHZ NO00  P        A2042 36.670              eqc                          
 NBO04BHZ NO00  Pg       A2042 37.407              eqc                          
 NBO05BHZ NO00  P        A2042 35.670              eqc                          
 NC200BHZ NO00  P        A2042 39.030              eqc                          
 NC201BHZ NO00  P        A2042 38.495              eqc                          
 NC202BHZ NO00  P        A2042 39.028              eqc                          
 NC203BHZ NO00  P        A2042 37.340              eqc                          
 NC204BHZ NO00  P        A2042 37.865              eqc                          
 NC300BHZ NO00  Pg       A2042 43.443              eqc                          
 NC303BHZ NO00  P        A2042 41.123              eqc                          
 NC304BHZ NO00  Pg       A2042 43.218              eqc                          
 NC400BHZ NO00  P        A2042 43.190              eqc                          
 NC403BHZ NO00  P        A2042 41.520              eqc                          
 NC602BHE NO00  Sg       A2043  4.585              eqc                          
 NC602BHZ NO00  P        A2042 37.745              eqc                          
 NC603BHZ NO00  P        A2042 36.422              eqc                          
 NC604BHZ NO00  P        A2042 36.722              eqc                          
 NC605BHZ NO00  P        A2042 36.630              eqc                          
 ODD1 HHN NS00  S        A2042 22.828              eqc                          
 ODD1 HHZ NS00  P        A2042 14.408              eqc                          
 SKAR HHN NS00  S        A2042 30.690              eqc                          
 SKAR HHZ NS00  P        A2042 18.543              eqc                          
 SNARTEHE NS00  S        A2042 49.443              eqc                          
 SUE  HHN NS00  S        A2043  3.035              eqc                          
 NBO  BHZ NS00  P        A2042 36.600               RR                          
 NBO  BHE NS00  S        A2042 59.125               RR                          
 NC3  BHZ NS00  P        A2042 42.361               RR                          
 NAO  BHZ NS00  P        A2042 34.767               RR                          
 NC2  BHZ NS00  P        A2042 39.030               RR                          
 NC4  BHZ NS00  P        A2042 43.190               RR                          
 NC6  BHE NS00  S        A2043  5.252               RR                          
 NAO  BHZ NS00  P        A2042 34.511               RR                          
 NC6  BHE NS00  S        A2043  5.112               RR                          
                                                                                
