 2021  1 5 2042 14.4 L  59.822   7.898  0.0      40 0.0                        1
 Action:ARG 22-04-26 13:55 OP:feha STATUS:               ID:20210105204214     I
 2021-01-05-2040-54M.EQCS__092                                                 6
 detect_val=4.908361193864103                                                  3
 Detected using template: 2021_01_05t17_42_43_30_templ                         3
 EQC_detection_id: 2021_01_05t17_42_43_30_templ_20210105_204214100000          3
 STAT COM NTLO IPHASE   W HHMM SS.SSS   PAR1  PAR2 AGA OPE  AIN  RES W  DIS CAZ7
 ASK  HHE NS00  S        A2042 49.900              eqc                          
 ASK  HHN NS00  S        A2042 49.450              eqc                          
 ASK  HHZ NS00  P        A2042 30.575              eqc                          
 BLS5 HHE NS00  S        A2042 29.350              eqc                          
 BLS5 HHN NS00  S        A2042 29.875              eqc                          
 BLS5 HHZ NS00  P        A2042 17.300              eqc                          
 HOMB HHE NS00  S        A2042 50.950              eqc                          
 HOMB HHN NS00  S        A2042 50.225              eqc                          
 HYA  HHE NS00  S        A2042 52.575              eqc                          
 HYA  HHN NS00  S        A2042 52.575              eqc                          
 KMY  HHE NS00  S        A2042 49.450              eqc                          
 KMY  HHN NS00  S        A2042 48.075              eqc                          
 KMY  HHZ NS00  P        A2042 29.828              eqc                          
 NAO01BHE NO00  S        A2042 58.125              eqc                          
 NAO01BHN NO00  S        A2042 57.750              eqc                          
 NAO01BHZ NO00  P        A2042 35.875              eqc                          
 NAO02BHZ NO00  P        A2042 33.900              eqc                          
 NAO03BHZ NO00  P        A2042 33.875              eqc                          
 NAO04BHZ NO00  P        A2042 33.625              eqc                          
 NAO05BHZ NO00  P        A2042 34.425              eqc                          
 NBO00BHE NO00  S        A2042 59.550              eqc                          
 NBO00BHN NO00  S        A2042 59.325              eqc                          
 NBO00BHZ NO00  P        A2042 36.525              eqc                          
 NBO01BHZ NO00  P        A2042 35.945              eqc                          
 NBO02BHZ NO00  P        A2042 36.625              eqc                          
 NBO03BHZ NO00  P        A2042 35.450              eqc                          
 NBO04BHZ NO00  P        A2042 36.350              eqc                          
 NBO05BHZ NO00  P        A2042 35.650              eqc                          
 NC200BHZ NO00  P        A2042 38.423              eqc                          
 NC201BHZ NO00  P        A2042 38.471              eqc                          
 NC202BHZ NO00  P        A2042 37.325              eqc                          
 NC203BHZ NO00  P        A2042 37.325              eqc                          
 NC204BHE NO00  Sg       A2043  6.025              eqc                          
 NC204BHN NO00  Sg       A2043  6.175              eqc                          
 NC204BHZ NO00  P        A2042 37.850              eqc                          
 NC300BHZ NO00  P        A2042 42.145              eqc                          
 NC303BHE NO00  Sg       A2043 12.145              eqc                          
 NC303BHN NO00  Sg       A2043 11.525              eqc                          
 NC303BHZ NO00  P        A2042 41.100              eqc                          
 NC304BHZ NO00  P        A2042 42.143              eqc                          
 NC400BHZ NO00  P        A2042 42.168              eqc                          
 NC403BHZ NO00  P        A2042 41.500              eqc                          
 NC602BHE NO00  Sg       A2043  4.947              eqc                          
 NC602BHN NO00  Sg       A2043  4.947              eqc                          
 NC602BHZ NO00  P        A2042 37.723              eqc                          
 NC603BHZ NO00  P        A2042 36.398              eqc                          
 NC604BHZ NO00  P        A2042 36.700              eqc                          
 NC605BHZ NO00  P        A2042 36.600              eqc                          
 ODD1 HHE NS00  S        A2042 22.175              eqc                          
 ODD1 HHN NS00  S        A2042 22.800              eqc                          
 ODD1 HHZ NS00  P        A2042 14.400              eqc                          
 SKAR HHE NS00  S        A2042 30.825              eqc                          
 SKAR HHN NS00  S        A2042 30.700              eqc                          
 SKAR HHZ NS00  P        A2042 19.450              eqc                          
 SNARTEHE NS00  S        A2042 49.425              eqc                          
 SNARTEHN NS00  S        A2042 49.550              eqc                          
 SUE  HHN NS00  S        A2043  3.025              eqc                          
 NC2  BHZ NS00  P       2A2042 38.086               RR                          
 NC2  BHZ NS00  BAZ-P   2A2042 38.086  234.2  8.11  RR                          
 NC2  BHE NS00  S       2A2043  6.608               RR                          
 NC2  BHE NS00  BAZ-S   2A2043  6.608  234.2  8.11  RR                          
 NC3  BHZ NS00  P       2A2042 41.496               RR                          
 NC3  BHZ NS00  BAZ-P   2A2042 41.496  234.2  8.11  RR                          
 NC3  BHE NS00  S       2A2043 11.945               RR                          
 NC3  BHE NS00  BAZ-S   2A2043 11.945  234.2  8.11  RR                          
 NC4  BHZ NS00  P       2A2042 42.252               RR                          
 NC4  BHZ NS00  BAZ-P   2A2042 42.252  234.2  8.11  RR                          
 NC6  BHZ NS00  P       2A2042 37.427               RR                          
 NC6  BHZ NS00  BAZ-P   2A2042 37.427  242.0  4.09  RR                          
 NC6  BHE NS00  S       2A2043  4.971               RR                          
 NC6  BHE NS00  BAZ-S   2A2043  4.971  242.0  4.09  RR                          
 NAO  BHZ NS00  P       2A2042 34.333               RR                          
 NAO  BHZ NS00  BAZ-P   2A2042 34.333  234.2  8.11  RR                          
 NAO  BHE NS00  S       2A2042 57.334               RR                          
 NAO  BHE NS00  BAZ-S   2A2042 57.334  234.2  8.11  RR                          
 NBO  BHZ NS00  P       2A2042 36.525               RR                          
 NBO  BHE NS00  S       2A2042 59.550               RR                          
 NBO  BHN NS00  S       2A2042 59.325               RR                          
                                                                                
