 2021  1 5  7 3 55.1 L  59.822   7.898  0.0      40 0.0                        1
 Action:ARG 22-03-18 11:51 OP:feha STATUS:               ID:20210105070355     I
 2021-01-05-0702-30M.EQCS__092                                                 6
 detect_val=3.1255114190280437                                                 3
 Detected using template: 2021_01_05t17_42_43_30_templ                         3
 EQC_detection_id: 2021_01_05t17_42_43_30_templ_20210105_070350450000          3
 STAT COM NTLO IPHASE   W HHMM SS.SSS   PAR1  PAR2 AGA OPE  AIN  RES W  DIS CAZ7
 ASK  HHN NS00  S        A 7 4 29.600              eqc                          
 ASK  HHZ NS00  P        A 7 4  9.725              eqc                          
 BLS5 HHE NS00  S        A 7 4 10.425              eqc                          
 BLS5 HHZ NS00  P        A 7 3 58.350              eqc                          
 HOMB HHE NS00  S        A 7 4 30.975              eqc                          
 HYA  HHN NS00  S        A 7 4 32.800              eqc                          
 KMY  HHN NS00  S        A 7 4 29.400              eqc                          
 KMY  HHZ NS00  P        A 7 4  9.475              eqc                          
 NAO01BHN NO00  S        A 7 4 37.450              eqc                          
 NAO01BHZ NO00  P        A 7 4 14.925              eqc                          
 NAO02BHZ NO00  P        A 7 4 14.175              eqc                          
 NAO03BHZ NO00  P        A 7 4 14.775              eqc                          
 NAO04BHZ NO00  P        A 7 4 13.725              eqc                          
 NAO05BHZ NO00  P        A 7 4 14.075              eqc                          
 NBO00BHE NO00  S        A 7 4 38.575              eqc                          
 NBO00BHZ NO00  P        A 7 4 16.750              eqc                          
 NBO01BHZ NO00  P        A 7 4 16.175              eqc                          
 NBO02BHZ NO00  P        A 7 4 17.725              eqc                          
 NBO03BHZ NO00  P        A 7 4 16.975              eqc                          
 NBO04BHZ NO00  Pg       A 7 4 16.075              eqc                          
 NBO05BHZ NO00  P        A 7 4 16.375              eqc                          
 NC200BHZ NO00  P        A 7 4 18.925              eqc                          
 NC201BHZ NO00  P        A 7 4 19.650              eqc                          
 NC202BHZ NO00  P        A 7 4 18.000              eqc                          
 NC203BHZ NO00  P        A 7 4 17.950              eqc                          
 NC204BHZ NO00  P        A 7 4 18.550              eqc                          
 NC300BHZ NO00  Pg       A 7 4 22.525              eqc                          
 NC303BHZ NO00  P        A 7 4 20.350              eqc                          
 NC304BHZ NO00  Pg       A 7 4 22.200              eqc                          
 NC400BHZ NO00  P        A 7 4 22.125              eqc                          
 NC403BHZ NO00  P        A 7 4 22.325              eqc                          
 NC602BHE NO00  Sg       A 7 4 44.850              eqc                          
 NC602BHZ NO00  P        A 7 4 18.475              eqc                          
 NC603BHZ NO00  P        A 7 4 17.475              eqc                          
 NC604BHZ NO00  P        A 7 4 17.725              eqc                          
 NC605BHZ NO00  P        A 7 4 17.225              eqc                          
 ODD1 HHN NS00  S        A 7 4  3.225              eqc                          
 ODD1 HHZ NS00  P        A 7 3 55.150              eqc                          
 SKAR HHN NS00  S        A 7 4 10.950              eqc                          
 SKAR HHZ NS00  P        A 7 3 59.525              eqc                          
 SNARTEHE NS00  S        A 7 4 29.500              eqc                          
 SUE  HHN NS00  S        A 7 4 43.000              eqc                          
 NBO  BHZ NS00  P        A 7 4 16.880                                           
 NC6  BHE NS00  S        A 7 4 44.912                                           
 NAO  BHZ NS00  P        A 7 4 14.602                                           
 NC2  BHZ NS00  P        A 7 4 18.925                                           
 NC3  BHZ NS00  P        A 7 4 22.525                                           
 NC4  BHZ NS00  P        A 7 4 22.125                                           
 NC6  BHE NS00  S        A 7 4 45.052                                           
 NAO  BHZ NS00  P        A 7 4 14.417                                           
 NBO  BHE NS00  S        A 7 4 38.575                                           
                                                                                
