 2021  1 5 1742 54.8 L  59.822   7.898  0.0      34 0.0                        1
 Action:ARG 22-03-18 16:10 OP:feha STATUS:               ID:20210105174254     I
 2021-01-05-1741-34M.EQCS__092                                                 6
 detect_val=39.197301387786865                                                 3
 Detected using template: 2021_01_05t17_42_43_30_templ                         3
 EQC_detection_id: 2021_01_05t17_42_43_30_templ_20210105_174254575000          3
 STAT COM NTLO IPHASE   W HHMM SS.SSS   PAR1  PAR2 AGA OPE  AIN  RES W  DIS CAZ7
 ASK  HHN NS00  S        A1743 29.925              eqc                          
 ASK  HHZ NS00  P        A1743 10.250              eqc                          
 BLS5 HHE NS00  S        A1743  9.850              eqc                          
 BLS5 HHZ NS00  P        A1742 58.300              eqc                          
 HOMB HHE NS00  S        A1743 31.300              eqc                          
 HYA  HHN NS00  S        A1743 33.050              eqc                          
 KMY  HHN NS00  S        A1743 29.075              eqc                          
 KMY  HHZ NS00  P        A1743 10.325              eqc                          
 NAO01BHN NO00  S        A1743 38.150              eqc                          
 NAO01BHZ NO00  P        A1743 15.600              eqc                          
 NAO02BHZ NO00  P        A1743 14.900              eqc                          
 NAO03BHZ NO00  P        A1743 14.200              eqc                          
 NAO04BHZ NO00  P        A1743 14.125              eqc                          
 NAO05BHZ NO00  P        A1743 14.925              eqc                          
 NBO00BHE NO00  S        A1743 39.300              eqc                          
 NBO00BHZ NO00  P        A1743 16.175              eqc                          
 NBO01BHZ NO00  P        A1743 16.575              eqc                          
 NBO02BHZ NO00  P        A1743 17.050              eqc                          
 NBO03BHZ NO00  P        A1743 16.500              eqc                          
 NBO04BHZ NO00  Pg       A1743 16.950              eqc                          
 NBO05BHZ NO00  P        A1743 15.900              eqc                          
 NC200BHZ NO00  P        A1743 18.500              eqc                          
 NC201BHZ NO00  P        A1743 18.975              eqc                          
 NC202BHZ NO00  P        A1743 18.475              eqc                          
 NC203BHZ NO00  P        A1743 17.925              eqc                          
 NC204BHZ NO00  P        A1743 18.350              eqc                          
 NC300BHZ NO00  Pg       A1743 23.150              eqc                          
 NC303BHZ NO00  P        A1743 21.275              eqc                          
 NC304BHZ NO00  Pg       A1743 22.775              eqc                          
 NC400BHZ NO00  P        A1743 22.900              eqc                          
 NC403BHZ NO00  P        A1743 21.875              eqc                          
 NC602BHE NO00  Sg       A1743 45.550              eqc                          
 NC602BHZ NO00  P        A1743 18.225              eqc                          
 NC603BHZ NO00  P        A1743 17.275              eqc                          
 NC604BHZ NO00  P        A1743 17.200              eqc                          
 NC605BHZ NO00  P        A1743 17.350              eqc                          
 ODD1 HHN NS00  S        A1743  3.300              eqc                          
 ODD1 HHZ NS00  P        A1742 54.875              eqc                          
 SKAR HHN NS00  S        A1743 11.175              eqc                          
 SKAR HHZ NS00  P        A1742 59.450              eqc                          
 SNARTEHE NS00  S        A1743 30.075              eqc                          
 SUE  HHN NS00  S        A1743 43.025              eqc                          
                                                                                
