 2021  1 5 2042 17.9 L  59.822   7.898  0.0      40 0.0                        1
 Action:ARG 22-03-18 11:51 OP:feha STATUS:               ID:20210105204217     I
 2021-01-05-2040-54M.EQCS__092                                                 6
 detect_val=3.222497746348381                                                  3
 Detected using template: 2021_01_05t17_42_43_30_templ                         3
 EQC_detection_id: 2021_01_05t17_42_43_30_templ_20210105_204214100000          3
 STAT COM NTLO IPHASE   W HHMM SS.SSS   PAR1  PAR2 AGA OPE  AIN  RES W  DIS CAZ7
 ASK  HHN NS00  S        A2042 53.200              eqc                          
 ASK  HHZ NS00  P        A2042 33.725              eqc                          
 BLS5 HHE NS00  S        A2042 33.700              eqc                          
 BLS5 HHZ NS00  P        A2042 21.475              eqc                          
 HOMB HHE NS00  S        A2042 54.450              eqc                          
 HYA  HHN NS00  S        A2042 57.200              eqc                          
 KMY  HHN NS00  S        A2042 52.775              eqc                          
 KMY  HHZ NS00  P        A2042 33.175              eqc                          
 NAO01BHN NO00  S        A2043  1.875              eqc                          
 NAO01BHZ NO00  P        A2042 39.175              eqc                          
 NAO02BHZ NO00  P        A2042 38.850              eqc                          
 NAO03BHZ NO00  P        A2042 37.625              eqc                          
 NAO04BHZ NO00  P        A2042 38.300              eqc                          
 NAO05BHZ NO00  P        A2042 37.825              eqc                          
 NBO00BHE NO00  S        A2043  3.475              eqc                          
 NBO00BHZ NO00  P        A2042 39.600              eqc                          
 NBO01BHZ NO00  P        A2042 40.300              eqc                          
 NBO02BHZ NO00  P        A2042 40.125              eqc                          
 NBO03BHZ NO00  P        A2042 40.475              eqc                          
 NBO04BHZ NO00  Pg       A2042 39.925              eqc                          
 NBO05BHZ NO00  P        A2042 39.350              eqc                          
 NC200BHZ NO00  P        A2042 41.425              eqc                          
 NC201BHZ NO00  P        A2042 43.100              eqc                          
 NC202BHZ NO00  P        A2042 41.225              eqc                          
 NC203BHZ NO00  P        A2042 41.450              eqc                          
 NC204BHZ NO00  P        A2042 42.375              eqc                          
 NC300BHZ NO00  Pg       A2042 46.150              eqc                          
 NC303BHZ NO00  P        A2042 45.000              eqc                          
 NC304BHZ NO00  Pg       A2042 46.875              eqc                          
 NC400BHZ NO00  P        A2042 45.700              eqc                          
 NC403BHZ NO00  P        A2042 45.325              eqc                          
 NC602BHE NO00  Sg       A2043  9.575              eqc                          
 NC602BHZ NO00  P        A2042 41.975              eqc                          
 NC603BHZ NO00  P        A2042 41.025              eqc                          
 NC604BHZ NO00  P        A2042 40.700              eqc                          
 NC605BHZ NO00  P        A2042 40.425              eqc                          
 ODD1 HHN NS00  S        A2042 26.875              eqc                          
 ODD1 HHZ NS00  P        A2042 17.925              eqc                          
 SKAR HHN NS00  S        A2042 34.175              eqc                          
 SKAR HHZ NS00  P        A2042 22.825              eqc                          
 SNARTEHE NS00  S        A2042 54.225              eqc                          
 SUE  HHN NS00  S        A2043  7.175              eqc                          
 NBO  BHZ NS00  P        A2042 40.224                                           
 NBO  BHE NS00  S        A2043  3.775                                           
 NC3  BHZ NS00  P        A2042 47.446                                           
 NC6  BHZ NS00  P        A2042 40.249                                           
 NAO  BHZ NS00  P        A2042 38.841                                           
 NC2  BHZ NS00  P        A2042 41.425                                           
 NC4  BHZ NS00  P        A2042 45.700                                           
 NAO  BHZ NS00  P        A2042 38.957                                           
                                                                                
