 2021  1 5 2130 33.3 L  59.822   7.898  0.0      35 0.0                        1
 Action:ARG 22-03-18 10:53 OP:feha STATUS:               ID:20210105213033     I
 2021-01-05-2129-09M.EQCS__092                                                 6
 detect_val=3.297780405730009                                                  3
 Detected using template: 2021_01_05t17_42_43_30_templ                         3
 EQC_detection_id: 2021_01_05t17_42_43_30_templ_20210105_213029475000          3
 STAT COM NTLO IPHASE   W HHMM SS.SSS   PAR1  PAR2 AGA OPE  AIN  RES W  DIS CAZ7
