 2021  1 5 2130 33.3 L  59.822   7.898  0.0      34 0.0                        1
 Action:ARG 22-03-18 09:50 OP:feha STATUS:               ID:20210105213033     I
 2021-01-05-2129-09M.EQCS__092                                                 6
 detect_val=3.2977802604436874                                                 3
 Detected using template: 2021_01_05t17_42_43_30_templ                         3
 EQC_detection_id: 2021_01_05t17_42_43_30_templ_20210105_213029475000          3
 STAT COM NTLO IPHASE   W HHMM SS.SSS   PAR1  PAR2 AGA OPE  AIN  RES W  DIS CAZ7
 ASK  HHN NS00  S        A2131  8.825              eqc                          
 ASK  HHZ NS00  P        A2130 49.600              eqc                          
 BLS5 HHE NS00  S        A2130 48.600              eqc                          
 BLS5 HHZ NS00  P        A2130 36.950              eqc                          
 HOMB HHE NS00  S        A2131  9.650              eqc                          
 HYA  HHN NS00  S        A2131 11.700              eqc                          
 KMY  HHN NS00  S        A2131  7.950              eqc                          
 KMY  HHZ NS00  P        A2130 49.550              eqc                          
 NAO01BHN NO00  S        A2131 17.850              eqc                          
 NAO01BHZ NO00  P        A2130 54.975              eqc                          
 NAO02BHZ NO00  P        A2130 53.800              eqc                          
 NAO03BHZ NO00  P        A2130 52.300              eqc                          
 NAO04BHZ NO00  P        A2130 52.725              eqc                          
 NAO05BHZ NO00  P        A2130 54.625              eqc                          
 NBO00BHE NO00  S        A2131 17.800              eqc                          
 NBO00BHZ NO00  P        A2130 54.475              eqc                          
 NBO01BHZ NO00  P        A2130 56.275              eqc                          
 NBO02BHZ NO00  P        A2130 55.925              eqc                          
 NBO03BHZ NO00  P        A2130 55.875              eqc                          
 NBO04BHZ NO00  Pg       A2130 55.175              eqc                          
 NBO05BHZ NO00  P        A2130 54.725              eqc                          
 NC200BHZ NO00  P        A2130 58.000              eqc                          
 NC201BHZ NO00  P        A2130 57.150              eqc                          
 NC202BHZ NO00  P        A2130 56.825              eqc                          
 NC203BHZ NO00  P        A2130 57.175              eqc                          
 NC204BHZ NO00  P        A2130 56.825              eqc                          
 NC300BHZ NO00  Pg       A2131  2.275              eqc                          
 NC303BHZ NO00  P        A2131  0.150              eqc                          
 NC304BHZ NO00  Pg       A2131  2.275              eqc                          
 NC400BHZ NO00  P        A2131  1.125              eqc                          
 NC403BHZ NO00  P        A2131  0.975              eqc                          
 NC602BHE NO00  Sg       A2131 24.400              eqc                          
 NC602BHZ NO00  P        A2130 57.200              eqc                          
 NC603BHZ NO00  P        A2130 56.250              eqc                          
 NC604BHZ NO00  P        A2130 56.575              eqc                          
 NC605BHZ NO00  P        A2130 56.225              eqc                          
 ODD1 HHZ NS00  P        A2130 33.300              eqc                          
 SKAR HHN NS00  S        A2130 49.925              eqc                          
 SKAR HHZ NS00  P        A2130 38.300              eqc                          
 SNARTEHE NS00  S        A2131  8.275              eqc                          
 SUE  HHN NS00  S        A2131 22.600              eqc                          
                                                                                
