 2021  1 5 1632 43.2 L  59.822   7.898  0.0      32 0.0                        1
 Action:ARG 22-03-18 09:35 OP:feha STATUS:               ID:20210105163243     I
 2021-01-05-1631-18M.EQCS__092                                                 6
 detect_val=3.332951743155718                                                  3
 Detected using template: 2021_01_05t17_42_43_30_templ                         3
 EQC_detection_id: 2021_01_05t17_42_43_30_templ_20210105_163238175000          3
 STAT COM NTLO IPHASE   W HHMM SS.SSS   PAR1  PAR2 AGA OPE  AIN  RES W  DIS CAZ7
 ASK  HHN NS00  S        A1633 17.425              eqc                          
 ASK  HHZ NS00  P        A1632 57.100              eqc                          
 BLS5 HHE NS00  S        A1632 57.700              eqc                          
 BLS5 HHZ NS00  P        A1632 46.225              eqc                          
 HOMB HHE NS00  S        A1633 18.400              eqc                          
 HYA  HHN NS00  S        A1633 20.275              eqc                          
 KMY  HHN NS00  S        A1633 16.375              eqc                          
 KMY  HHZ NS00  P        A1632 58.575              eqc                          
 NAO01BHN NO00  S        A1633 26.375              eqc                          
 NAO01BHZ NO00  P        A1633  3.650              eqc                          
 NAO02BHZ NO00  P        A1633  2.250              eqc                          
 NAO03BHZ NO00  P        A1633  1.950              eqc                          
 NAO05BHZ NO00  P        A1633  2.350              eqc                          
 NBO00BHE NO00  S        A1633 27.575              eqc                          
 NBO00BHZ NO00  P        A1633  3.125              eqc                          
 NBO01BHZ NO00  P        A1633  4.450              eqc                          
 NBO02BHZ NO00  P        A1633  4.225              eqc                          
 NBO03BHZ NO00  P        A1633  3.725              eqc                          
 NBO04BHZ NO00  Pg       A1633  5.325              eqc                          
 NBO05BHZ NO00  P        A1633  3.200              eqc                          
 NC200BHZ NO00  P        A1633  5.750              eqc                          
 NC201BHZ NO00  P        A1633  5.825              eqc                          
 NC202BHZ NO00  P        A1633  6.100              eqc                          
 NC203BHZ NO00  P        A1633  5.550              eqc                          
 NC204BHZ NO00  P        A1633  6.125              eqc                          
 NC300BHZ NO00  Pg       A1633 10.500              eqc                          
 NC303BHZ NO00  P        A1633  8.800              eqc                          
 NC304BHZ NO00  Pg       A1633 10.475              eqc                          
 NC400BHZ NO00  P        A1633 10.475              eqc                          
 NC403BHZ NO00  P        A1633  9.250              eqc                          
 NC602BHE NO00  Sg       A1633 33.575              eqc                          
 NC602BHZ NO00  P        A1633  5.975              eqc                          
 NC603BHZ NO00  P        A1633  5.400              eqc                          
 NC604BHZ NO00  P        A1633  5.350              eqc                          
 NC605BHZ NO00  P        A1633  5.550              eqc                          
 ODD1 HHN NS00  S        A1632 50.350              eqc                          
 ODD1 HHZ NS00  P        A1632 43.275              eqc                          
 SKAR HHN NS00  S        A1632 59.200              eqc                          
 SKAR HHZ NS00  P        A1632 47.475              eqc                          
 SUE  HHN NS00  S        A1633 30.400              eqc                          
                                                                                
