 2021  1 5 2147 33.5 L  59.822   7.898  0.0      33 0.0                        1
 Action:ARG 22-03-18 09:34 OP:feha STATUS:               ID:20210105214733     I
 2021-01-05-2146-09M.EQCS__092                                                 6
 detect_val=2.8626646362245083                                                 3
 Detected using template: 2021_01_05t17_42_43_30_templ                         3
 EQC_detection_id: 2021_01_05t17_42_43_30_templ_20210105_214729975000          3
 STAT COM NTLO IPHASE   W HHMM SS.SSS   PAR1  PAR2 AGA OPE  AIN  RES W  DIS CAZ7
 ASK  HHN NS00  S        A2148  9.175              eqc                          
 BLS5 HHE NS00  S        A2147 48.450              eqc                          
 BLS5 HHZ NS00  P        A2147 37.050              eqc                          
 HOMB HHE NS00  S        A2148 10.450              eqc                          
 HYA  HHN NS00  S        A2148 11.700              eqc                          
 KMY  HHZ NS00  P        A2147 49.725              eqc                          
 NAO01BHN NO00  S        A2148 17.350              eqc                          
 NAO01BHZ NO00  P        A2147 54.350              eqc                          
 NAO02BHZ NO00  P        A2147 53.750              eqc                          
 NAO03BHZ NO00  P        A2147 54.025              eqc                          
 NAO04BHZ NO00  P        A2147 53.000              eqc                          
 NAO05BHZ NO00  P        A2147 54.050              eqc                          
 NBO00BHE NO00  S        A2148 18.700              eqc                          
 NBO00BHZ NO00  P        A2147 55.700              eqc                          
 NBO01BHZ NO00  P        A2147 56.200              eqc                          
 NBO02BHZ NO00  P        A2147 56.175              eqc                          
 NBO03BHZ NO00  P        A2147 56.275              eqc                          
 NBO05BHZ NO00  P        A2147 55.450              eqc                          
 NC200BHZ NO00  P        A2147 57.850              eqc                          
 NC201BHZ NO00  P        A2147 58.200              eqc                          
 NC202BHZ NO00  P        A2147 57.350              eqc                          
 NC203BHZ NO00  P        A2147 56.525              eqc                          
 NC204BHZ NO00  P        A2147 56.950              eqc                          
 NC300BHZ NO00  Pg       A2148  2.550              eqc                          
 NC303BHZ NO00  P        A2148  0.925              eqc                          
 NC304BHZ NO00  Pg       A2148  1.875              eqc                          
 NC400BHZ NO00  P        A2148  3.025              eqc                          
 NC403BHZ NO00  P        A2148  1.975              eqc                          
 NC602BHE NO00  Sg       A2148 25.750              eqc                          
 NC602BHZ NO00  P        A2147 58.250              eqc                          
 NC603BHZ NO00  P        A2147 56.925              eqc                          
 NC604BHZ NO00  P        A2147 55.800              eqc                          
 NC605BHZ NO00  P        A2147 56.900              eqc                          
 ODD1 HHN NS00  S        A2147 42.500              eqc                          
 ODD1 HHZ NS00  P        A2147 33.550              eqc                          
 SKAR HHN NS00  S        A2147 50.575              eqc                          
 SKAR HHZ NS00  P        A2147 38.875              eqc                          
 SNARTEHE NS00  S        A2148  9.025              eqc                          
 SUE  HHN NS00  S        A2148 22.225              eqc                          
                                                                                
